{"type":"FeatureCollection","features":[{"type":"Feature","id":54,"geometry":{"type":"Polygon","coordinates":[[[-50.2557,-26.8507],[-50.2424,-26.852],[-50.2443,-26.8364],[-50.2298,-26.8307],[-50.2159,-26.8049],[-50.223,-26.7653],[-50.2421,-26.7586],[-50.2431,-26.7442],[-50.2533,-26.7347],[-50.2465,-26.6979],[-50.2163,-26.6746],[-50.2173,-26.6618],[-50.205,-26.6402],[-50.2087,-26.6174],[-50.1955,-26.5903],[-50.2035,-26.581],[-50.203,-26.5543],[-50.2159,-26.5323],[-50.2164,-26.5074],[-50.224,-26.5018],[-50.2312,-26.4684],[-50.2185,-26.451],[-50.2256,-26.433],[-50.2159,-26.4238],[-50.2205,-26.3884],[-50.2079,-26.3791],[-50.1903,-26.3765],[-50.1858,-26.3916],[-50.1618,-26.4012],[-50.1453,-26.4299],[-50.1334,-26.4331],[-50.1208,-26.4277],[-50.1206,-26.4432],[-50.0949,-26.4375],[-50.0776,-26.4396],[-50.0711,-26.4479],[-50.0456,-26.4384],[-49.984,-26.463],[-49.9708,-26.4552],[-49.9433,-26.4601],[-49.9295,-26.4534],[-49.9143,-26.4551],[-49.9109,-26.4498],[-49.8962,-26.4593],[-49.8866,-26.4494],[-49.8668,-26.4768],[-49.8625,-26.5006],[-49.8537,-26.503],[-49.8488,-26.5142],[-49.8548,-26.523],[-49.8521,-26.5366],[-49.8417,-26.5264],[-49.8421,-26.5322],[-49.8341,-26.5268],[-49.814,-26.5349],[-49.7825,-26.5935],[-49.7706,-26.5988],[-49.7634,-26.6108],[-49.744,-26.6079],[-49.738,-26.6143],[-49.7378,-26.6458],[-49.7188,-26.6618],[-49.6963,-26.6965],[-49.6858,-26.7029],[-49.6636,-26.6927],[-49.6404,-26.6916],[-49.6096,-26.7088],[-49.5996,-26.7043],[-49.5839,-26.6648],[-49.5857,-26.6347],[-49.5937,-26.6299],[-49.5857,-26.6244],[-49.5785,-26.5953],[-49.5825,-26.5843],[-49.5678,-26.5714],[-49.562,-26.5482],[-49.5489,-26.5373],[-49.5488,-26.5258],[-49.5188,-26.5261],[-49.492,-26.5074],[-49.4806,-26.5109],[-49.4529,-26.5021],[-49.4426,-26.4898],[-49.4616,-26.4771],[-49.4698,-26.4563],[-49.4937,-26.4396],[-49.4958,-26.4279],[-49.4825,-26.4216],[-49.4448,-26.4265],[-49.4373,-26.3739],[-49.403,-26.3499],[-49.4026,-26.3177],[-49.3854,-26.3145],[-49.3834,-26.3066],[-49.3658,-26.2949],[-49.3576,-26.2987],[-49.3347,-26.2882],[-49.3412,-26.2749],[-49.3332,-26.2597],[-49.3192,-26.2499],[-49.3032,-26.2483],[-49.3018,-26.2381],[-49.2935,-26.2375],[-49.2859,-26.2278],[-49.2491,-26.2213],[-49.2381,-26.2219],[-49.2361,-26.2281],[-49.215,-26.2253],[-49.2022,-26.2199],[-49.1922,-26.2024],[-49.1744,-26.2074],[-49.1684,-26.1872],[-49.183,-26.166],[-49.1791,-26.156],[-49.1921,-26.1524],[-49.189,-26.1453],[-49.1615,-26.1328],[-49.1582,-26.1139],[-49.1374,-26.1169],[-49.1398,-26.1097],[-49.1298,-26.1002],[-49.1234,-26.1026],[-49.1002,-26.089],[-49.0891,-26.0894],[-49.0739,-26.0752],[-49.058,-26.0769],[-49.0518,-26.0294],[-49.0354,-26.0097],[-48.9973,-26.0282],[-48.9572,-26.0201],[-48.9626,-26.003],[-48.9486,-25.9887],[-48.9635,-25.9792],[-48.9546,-25.9657],[-48.965,-25.9565],[-48.9639,-25.9497],[-48.9834,-25.9486],[-48.9797,-25.9401],[-48.9913,-25.9229],[-49.0034,-25.9419],[-49.0167,-25.9402],[-49.0389,-25.953],[-49.064,-25.957],[-49.0685,-25.9667],[-49.0857,-25.953],[-49.0871,-25.9323],[-49.0961,-25.9312],[-49.1081,-25.8991],[-49.1014,-25.8839],[-49.0889,-25.8809],[-49.0895,-25.8726],[-49.1007,-25.8646],[-49.097,-25.8583],[-49.1174,-25.8234],[-49.1306,-25.8152],[-49.1194,-25.7798],[-49.1055,-25.7763],[-49.086,-25.74],[-49.0731,-25.7422],[-49.0692,-25.7165],[-49.0588,-25.7001],[-49.0445,-25.6971],[-49.0357,-25.6867],[-49.0251,-25.6882],[-49.0188,-25.6802],[-49.0165,-25.6576],[-49.0082,-25.6524],[-48.9995,-25.6279],[-49.0012,-25.6063],[-48.9942,-25.6043],[-48.9957,-25.5936],[-48.9642,-25.5595],[-48.973,-25.5544],[-48.9618,-25.5363],[-48.9743,-25.509],[-48.9583,-25.4883],[-48.9945,-25.467],[-48.9739,-25.4362],[-48.9899,-25.4415],[-48.9985,-25.4377],[-49.0011,-25.4055],[-48.996,-25.3977],[-49.0004,-25.3889],[-49.0141,-25.3923],[-49.0271,-25.3819],[-49.0757,-25.3669],[-49.0887,-25.3369],[-49.121,-25.3161],[-49.14,-25.3181],[-49.1425,-25.3063],[-49.1572,-25.2902],[-49.1793,-25.286],[-49.2059,-25.2931],[-49.2232,-25.2689],[-49.2369,-25.2746],[-49.2568,-25.2708],[-49.2593,-25.2547],[-49.2756,-25.2571],[-49.2731,-25.2417],[-49.2924,-25.2243],[-49.3007,-25.2248],[-49.3359,-25.2417],[-49.3124,-25.2687],[-49.314,-25.2765],[-49.3563,-25.2944],[-49.3492,-25.3036],[-49.3708,-25.3124],[-49.3684,-25.3206],[-49.378,-25.3245],[-49.3798,-25.3327],[-49.3978,-25.3337],[-49.3998,-25.3443],[-49.4152,-25.3451],[-49.4259,-25.3562],[-49.4453,-25.3521],[-49.4582,-25.3561],[-49.468,-25.3644],[-49.4638,-25.3729],[-49.4713,-25.3823],[-49.4849,-25.3885],[-49.5014,-25.3801],[-49.52,-25.39],[-49.5302,-25.3842],[-49.564,-25.4167],[-49.564,-25.4267],[-49.5925,-25.4509],[-49.6044,-25.4468],[-49.6433,-25.4521],[-49.652,-25.4605],[-49.6473,-25.4708],[-49.6799,-25.4738],[-49.6902,-25.4655],[-49.7108,-25.4776],[-49.6958,-25.4375],[-49.7049,-25.4307],[-49.7196,-25.4336],[-49.7288,-25.4219],[-49.7309,-25.4098],[-49.7241,-25.4091],[-49.7222,-25.393],[-49.7362,-25.3958],[-49.7406,-25.3774],[-49.7355,-25.3639],[-49.7527,-25.3554],[-49.7686,-25.3692],[-49.7733,-25.3858],[-49.766,-25.4065],[-49.7824,-25.4292],[-49.7977,-25.4356],[-49.8007,-25.4693],[-49.8474,-25.4751],[-49.863,-25.5015],[-49.8753,-25.4947],[-49.8964,-25.502],[-49.9137,-25.4982],[-49.9367,-25.5128],[-49.9809,-25.4852],[-49.9929,-25.4982],[-50.0138,-25.5018],[-50.0307,-25.5207],[-50.0467,-25.5119],[-50.0598,-25.515],[-50.0774,-25.5087],[-50.0821,-25.5168],[-50.0982,-25.5151],[-50.099,-25.5301],[-50.1096,-25.5443],[-50.1077,-25.5545],[-50.1275,-25.5596],[-50.1318,-25.576],[-50.1971,-25.5849],[-50.2471,-25.581],[-50.2665,-25.5462],[-50.281,-25.5529],[-50.3001,-25.541],[-50.3207,-25.5454],[-50.3554,-25.5365],[-50.3696,-25.5501],[-50.394,-25.5518],[-50.4029,-25.5804],[-50.4127,-25.5785],[-50.4136,-25.5857],[-50.4242,-25.5908],[-50.4301,-25.6216],[-50.4254,-25.6324],[-50.4327,-25.6438],[-50.4468,-25.636],[-50.4504,-25.6485],[-50.4843,-25.659],[-50.4934,-25.6465],[-50.5027,-25.6477],[-50.5128,-25.6281],[-50.5274,-25.6285],[-50.5179,-25.6065],[-50.5472,-25.5786],[-50.5611,-25.5809],[-50.5851,-25.5729],[-50.5914,-25.58],[-50.6018,-25.5782],[-50.6052,-25.5858],[-50.6237,-25.5848],[-50.621,-25.5595],[-50.6026,-25.5419],[-50.6046,-25.5282],[-50.6251,-25.5102],[-50.6519,-25.5131],[-50.6599,-25.4949],[-50.6765,-25.5136],[-50.6838,-25.5112],[-50.6984,-25.4956],[-50.7041,-25.4724],[-50.7392,-25.4498],[-50.7374,-25.4343],[-50.7558,-25.4333],[-50.7745,-25.4153],[-50.7904,-25.4165],[-50.7888,-25.4319],[-50.7945,-25.4373],[-50.8162,-25.4396],[-50.8133,-25.4466],[-50.8329,-25.4674],[-50.8368,-25.4871],[-50.8526,-25.4863],[-50.861,-25.4985],[-50.8817,-25.507],[-50.9038,-25.5014],[-50.9171,-25.5115],[-50.9307,-25.5027],[-50.9393,-25.5304],[-50.9529,-25.5376],[-50.954,-25.549],[-50.9639,-25.5564],[-50.9585,-25.5679],[-50.9679,-25.5818],[-50.9904,-25.5715],[-51.0122,-25.5677],[-51.0215,-25.5718],[-51.0328,-25.5604],[-51.0434,-25.5667],[-51.0466,-25.5571],[-51.056,-25.554],[-51.0743,-25.5593],[-51.0965,-25.549],[-51.1001,-25.5368],[-51.1154,-25.5332],[-51.1168,-25.5227],[-51.1388,-25.5279],[-51.1446,-25.5076],[-51.1694,-25.5036],[-51.14,-25.4933],[-51.1363,-25.4718],[-51.149,-25.4668],[-51.1545,-25.4566],[-51.1757,-25.4565],[-51.1754,-25.4423],[-51.186,-25.4399],[-51.1864,-25.4168],[-51.2029,-25.3879],[-51.2501,-25.374],[-51.2507,-25.3681],[-51.2422,-25.3656],[-51.2474,-25.3579],[-51.2412,-25.3363],[-51.2608,-25.3187],[-51.2536,-25.3108],[-51.2529,-25.2912],[-51.2592,-25.2822],[-51.2532,-25.268],[-51.2621,-25.2385],[-51.2229,-25.2371],[-51.2236,-25.2236],[-51.2354,-25.211],[-51.2729,-25.2155],[-51.2864,-25.227],[-51.3032,-25.2263],[-51.3239,-25.2409],[-51.3261,-25.2539],[-51.3354,-25.249],[-51.3517,-25.2548],[-51.3624,-25.2449],[-51.3826,-25.2499],[-51.39,-25.2443],[-51.4015,-25.2468],[-51.4043,-25.2387],[-51.414,-25.2426],[-51.424,-25.2296],[-51.4621,-25.2132],[-51.4685,-25.2016],[-51.4892,-25.2117],[-51.501,-25.2043],[-51.5266,-25.2078],[-51.5537,-25.1996],[-51.569,-25.1899],[-51.5665,-25.1762],[-51.5833,-25.1659],[-51.6063,-25.1662],[-51.6165,-25.1594],[-51.6256,-25.1631],[-51.63,-25.1572],[-51.6343,-25.1643],[-51.6536,-25.1651],[-51.6608,-25.1591],[-51.6882,-25.1679],[-51.6971,-25.1671],[-51.7021,-25.1588],[-51.714,-25.1631],[-51.7246,-25.1565],[-51.7283,-25.1626],[-51.7565,-25.169],[-51.7665,-25.1796],[-51.7982,-25.1757],[-51.8362,-25.1592],[-51.8529,-25.1668],[-51.8665,-25.1625],[-51.8819,-25.1729],[-51.8899,-25.1718],[-51.8916,-25.1645],[-51.9054,-25.1654],[-51.9123,-25.1488],[-51.9493,-25.1338],[-51.9693,-25.1381],[-52.0163,-25.179],[-52.036,-25.1677],[-52.0553,-25.1713],[-52.0596,-25.1868],[-52.0862,-25.1938],[-52.0951,-25.2028],[-52.1185,-25.2051],[-52.1232,-25.2157],[-52.1393,-25.2171],[-52.154,-25.2312],[-52.2193,-25.2576],[-52.2624,-25.2526],[-52.2753,-25.2552],[-52.2884,-25.2671],[-52.3171,-25.2646],[-52.3281,-25.2815],[-52.3685,-25.2874],[-52.3737,-25.2974],[-52.402,-25.3021],[-52.4127,-25.3108],[-52.4438,-25.3012],[-52.4538,-25.2904],[-52.4649,-25.2915],[-52.4704,-25.2838],[-52.4679,-25.2551],[-52.4735,-25.249],[-52.4996,-25.2557],[-52.5274,-25.2407],[-52.5385,-25.2443],[-52.5806,-25.2342],[-52.6013,-25.2371],[-52.6065,-25.2438],[-52.6209,-25.2411],[-52.6178,-25.2175],[-52.6283,-25.1999],[-52.6521,-25.1865],[-52.6643,-25.1874],[-52.6769,-25.1683],[-52.6929,-25.1662],[-52.701,-25.1426],[-52.7183,-25.1332],[-52.7549,-25.1238],[-52.7824,-25.1282],[-52.7905,-25.1217],[-52.8113,-25.1209],[-52.8229,-25.1079],[-52.8404,-25.1093],[-52.8737,-25.096],[-52.911,-25.0987],[-52.9276,-25.0899],[-52.9433,-25.0982],[-52.9535,-25.0901],[-52.9929,-25.1035],[-53.0049,-25.1146],[-53.0426,-25.0976],[-53.111,-25.1059],[-53.123,-25.1025],[-53.138,-25.0846],[-53.1498,-25.0867],[-53.1518,-25.0768],[-53.1902,-25.0919],[-53.2028,-25.0711],[-53.2196,-25.0663],[-53.2333,-25.0472],[-53.2632,-25.0418],[-53.2668,-25.0268],[-53.2729,-25.0288],[-53.2835,-25.016],[-53.2957,-25.0143],[-53.2946,-24.9979],[-53.3401,-24.9832],[-53.3718,-24.986],[-53.3862,-24.9746],[-53.3953,-24.9749],[-53.3956,-24.9668],[-53.4187,-24.9572],[-53.4362,-24.9415],[-53.4571,-24.9579],[-53.4771,-24.9529],[-53.4873,-24.9789],[-53.505,-24.9818],[-53.5068,-24.994],[-53.5218,-24.9959],[-53.5246,-25.0065],[-53.5413,-25.0166],[-53.5424,-25.0268],[-53.5615,-25.0418],[-53.5712,-25.0326],[-53.5841,-25.0326],[-53.6076,-25.0507],[-53.6366,-25.0516],[-53.6465,-25.0665],[-53.6609,-25.0684],[-53.666,-25.0779],[-53.7029,-25.0746],[-53.7108,-25.0838],[-53.7307,-25.0882],[-53.7391,-25.1067],[-53.761,-25.1076],[-53.7721,-25.1143],[-53.789,-25.1043],[-53.7979,-25.1207],[-53.8235,-25.1265],[-53.8261,-25.1389],[-53.8576,-25.1592],[-53.8573,-25.1757],[-53.8695,-25.1794],[-53.8715,-25.1863],[-53.8849,-25.1743],[-53.9204,-25.1749],[-53.9237,-25.1868],[-53.9362,-25.1889],[-53.9513,-25.2055],[-53.9525,-25.2299],[-53.9793,-25.2438],[-53.9971,-25.2682],[-54.0066,-25.2686],[-53.9965,-25.2739],[-53.9978,-25.2939],[-54.0157,-25.304],[-54.0365,-25.2967],[-54.0418,-25.3201],[-54.0846,-25.3099],[-54.1018,-25.298],[-54.1335,-25.2993],[-54.1698,-25.335],[-54.1918,-25.3285],[-54.1947,-25.3521],[-54.2038,-25.3535],[-54.2121,-25.3724],[-54.2404,-25.3846],[-54.2463,-25.4202],[-54.2588,-25.4276],[-54.2782,-25.4351],[-54.2915,-25.4324],[-54.3173,-25.4549],[-54.3362,-25.4551],[-54.3385,-25.4617],[-54.3563,-25.4666],[-54.3696,-25.4815],[-54.3806,-25.4704],[-54.4076,-25.4632],[-54.4315,-25.4746],[-54.4483,-25.4652],[-54.4851,-25.4724],[-54.5267,-25.5039],[-54.5399,-25.5476],[-54.5543,-25.5509],[-54.5585,-25.5614],[-54.5781,-25.5689],[-54.5945,-25.5594],[-54.5933,-25.5933],[-54.5512,-25.5891],[-54.5349,-25.5986],[-54.5376,-25.618],[-54.5265,-25.629],[-54.5031,-25.615],[-54.4947,-25.6171],[-54.4536,-25.6544],[-54.4397,-25.6892],[-54.4312,-25.6942],[-54.4245,-25.6893],[-54.4248,-25.658],[-54.3948,-25.6376],[-54.3886,-25.6224],[-54.391,-25.6053],[-54.3845,-25.5975],[-54.3733,-25.5938],[-54.3473,-25.6061],[-54.3284,-25.5715],[-54.2884,-25.5557],[-54.2505,-25.5977],[-54.2352,-25.593],[-54.2365,-25.5682],[-54.2306,-25.563],[-54.2038,-25.5796],[-54.1788,-25.5849],[-54.1747,-25.5728],[-54.205,-25.5578],[-54.2053,-25.5401],[-54.1906,-25.5347],[-54.1641,-25.5423],[-54.1275,-25.5071],[-54.1043,-25.4944],[-54.0944,-25.4984],[-54.0933,-25.5126],[-54.1207,-25.5548],[-54.1236,-25.5716],[-54.1004,-25.6182],[-54.0897,-25.6123],[-54.0893,-25.5862],[-54.0783,-25.5577],[-54.0491,-25.5854],[-54.026,-25.5647],[-54.0122,-25.5653],[-53.9999,-25.5818],[-53.9701,-25.601],[-53.9782,-25.6047],[-53.9777,-25.6119],[-53.9654,-25.6127],[-53.9634,-25.6412],[-53.9555,-25.6466],[-53.9446,-25.6319],[-53.9541,-25.6241],[-53.9482,-25.6116],[-53.9326,-25.6226],[-53.9166,-25.6162],[-53.9213,-25.6299],[-53.9144,-25.6287],[-53.9122,-25.6363],[-53.8901,-25.6233],[-53.895,-25.6432],[-53.8802,-25.6405],[-53.8764,-25.6451],[-53.89,-25.6613],[-53.8762,-25.6542],[-53.8624,-25.6587],[-53.8547,-25.6726],[-53.8569,-25.6831],[-53.8422,-25.6882],[-53.8553,-25.6916],[-53.8515,-25.7062],[-53.8723,-25.6934],[-53.8656,-25.7054],[-53.8793,-25.7075],[-53.859,-25.7233],[-53.8665,-25.7441],[-53.8494,-25.7409],[-53.8352,-25.7497],[-53.8427,-25.7523],[-53.8405,-25.7609],[-53.8479,-25.7575],[-53.8571,-25.7663],[-53.831,-25.7807],[-53.8432,-25.7908],[-53.8221,-25.7935],[-53.8285,-25.8085],[-53.8196,-25.8162],[-53.8384,-25.8159],[-53.8354,-25.8253],[-53.8441,-25.8277],[-53.8501,-25.8396],[-53.8419,-25.8391],[-53.8344,-25.8501],[-53.8449,-25.8571],[-53.8318,-25.8592],[-53.8363,-25.8692],[-53.8234,-25.8721],[-53.8499,-25.8838],[-53.8196,-25.8984],[-53.8352,-25.9118],[-53.8188,-25.9126],[-53.8235,-25.9174],[-53.8206,-25.9276],[-53.8338,-25.9206],[-53.8332,-25.9314],[-53.8429,-25.9337],[-53.8399,-25.954],[-53.8281,-25.9636],[-53.8352,-25.9651],[-53.8361,-25.9719],[-53.8138,-25.9801],[-53.82,-25.9819],[-53.8179,-25.99],[-53.8029,-25.9846],[-53.805,-25.9958],[-53.7939,-25.999],[-53.7929,-26.0065],[-53.7803,-26.0085],[-53.7837,-26.0132],[-53.7766,-26.0166],[-53.7808,-26.0219],[-53.7636,-26.0361],[-53.756,-26.0329],[-53.7572,-26.0416],[-53.753,-26.0377],[-53.7463,-26.0449],[-53.744,-26.039],[-53.734,-26.043],[-53.7267,-26.0648],[-53.7401,-26.0835],[-53.7415,-26.116],[-53.7252,-26.1283],[-53.7104,-26.1305],[-53.7001,-26.1528],[-53.6822,-26.1621],[-53.6503,-26.1947],[-53.6532,-26.2053],[-53.6411,-26.2155],[-53.6535,-26.2351],[-53.6395,-26.2524],[-53.6278,-26.2621],[-53.6226,-26.2563],[-53.6024,-26.2613],[-53.5873,-26.2556],[-53.5801,-26.2746],[-53.549,-26.2926],[-53.5275,-26.2915],[-53.4999,-26.3043],[-53.4707,-26.2871],[-53.4629,-26.2974],[-53.4463,-26.2818],[-53.429,-26.2843],[-53.4026,-26.2663],[-53.4051,-26.2591],[-53.3987,-26.2526],[-53.3802,-26.2479],[-53.3751,-26.2407],[-53.3524,-26.2549],[-53.3448,-26.2467],[-53.3345,-26.2558],[-53.3141,-26.253],[-53.3057,-26.2615],[-53.2965,-26.2518],[-53.2807,-26.2506],[-53.2796,-26.259],[-53.2674,-26.2604],[-53.2643,-26.2893],[-53.2521,-26.2901],[-53.2515,-26.2977],[-53.2407,-26.3001],[-53.2286,-26.3184],[-53.1674,-26.3499],[-53.1443,-26.3446],[-53.1466,-26.3506],[-53.1256,-26.3737],[-53.1105,-26.3749],[-53.1079,-26.3843],[-53.0918,-26.3815],[-53.0922,-26.3942],[-53.0374,-26.3781],[-53.0318,-26.3693],[-53.0001,-26.3565],[-52.9933,-26.3451],[-52.9365,-26.3667],[-52.9166,-26.3558],[-52.8993,-26.364],[-52.8935,-26.3572],[-52.8648,-26.3582],[-52.8513,-26.3454],[-52.8215,-26.3432],[-52.7921,-26.3521],[-52.7757,-26.3465],[-52.7626,-26.3535],[-52.7547,-26.3529],[-52.7501,-26.3432],[-52.7374,-26.3424],[-52.7193,-26.3563],[-52.6776,-26.353],[-52.661,-26.3743],[-52.6435,-26.3779],[-52.6346,-26.3904],[-52.6208,-26.3951],[-52.6128,-26.4103],[-52.5949,-26.4174],[-52.5781,-26.4085],[-52.5578,-26.4068],[-52.5538,-26.4115],[-52.5224,-26.3975],[-52.499,-26.417],[-52.4763,-26.4193],[-52.459,-26.4399],[-52.4403,-26.4347],[-52.4358,-26.4397],[-52.4201,-26.438],[-52.4029,-26.4276],[-52.3995,-26.4357],[-52.38,-26.4423],[-52.3631,-26.4321],[-52.3516,-26.4412],[-52.3346,-26.4357],[-52.3263,-26.4435],[-52.3156,-26.4377],[-52.3099,-26.4456],[-52.3057,-26.439],[-52.2837,-26.4596],[-52.2487,-26.4538],[-52.2454,-26.4625],[-52.2356,-26.4649],[-52.2006,-26.4571],[-52.1874,-26.4451],[-52.1931,-26.4557],[-52.1682,-26.456],[-52.1563,-26.4793],[-52.1506,-26.4715],[-52.1343,-26.4696],[-52.1296,-26.476],[-52.0989,-26.4813],[-52.0962,-26.5077],[-52.0876,-26.5088],[-52.0785,-26.5254],[-52.0654,-26.523],[-52.0308,-26.5408],[-52.011,-26.5666],[-51.9851,-26.566],[-51.981,-26.5712],[-51.974,-26.5651],[-51.9645,-26.5732],[-51.9507,-26.5689],[-51.9304,-26.5849],[-51.9203,-26.5839],[-51.9148,-26.576],[-51.8981,-26.5777],[-51.8732,-26.6007],[-51.8601,-26.5967],[-51.8557,-26.5886],[-51.8446,-26.5974],[-51.8247,-26.5796],[-51.8156,-26.5789],[-51.7857,-26.5915],[-51.7494,-26.5775],[-51.7432,-26.5896],[-51.7297,-26.5892],[-51.7256,-26.5948],[-51.7132,-26.5786],[-51.6943,-26.5818],[-51.6624,-26.5551],[-51.659,-26.5645],[-51.6402,-26.5766],[-51.6328,-26.5929],[-51.6132,-26.5916],[-51.5983,-26.5822],[-51.5876,-26.5903],[-51.561,-26.587],[-51.5514,-26.5931],[-51.5435,-26.5887],[-51.5218,-26.5932],[-51.5113,-26.5774],[-51.4908,-26.5979],[-51.4918,-26.6193],[-51.486,-26.624],[-51.4679,-26.6213],[-51.4503,-26.64],[-51.4585,-26.6491],[-51.4406,-26.6643],[-51.4376,-26.6857],[-51.4106,-26.6993],[-51.4182,-26.7182],[-51.3918,-26.7365],[-51.3867,-26.7323],[-51.3807,-26.7365],[-51.369,-26.7143],[-51.3462,-26.7093],[-51.3273,-26.7243],[-51.2961,-26.7289],[-51.2866,-26.7214],[-51.2501,-26.7207],[-51.2532,-26.7101],[-51.2446,-26.6984],[-51.2493,-26.6924],[-51.2418,-26.6872],[-51.2451,-26.6755],[-51.2375,-26.6745],[-51.2296,-26.6843],[-51.219,-26.6792],[-51.2114,-26.6635],[-51.2097,-26.6763],[-51.2007,-26.6757],[-51.1775,-26.6535],[-51.1804,-26.6407],[-51.1576,-26.6199],[-51.1596,-26.6063],[-51.1415,-26.6018],[-51.1226,-26.6124],[-51.1093,-26.6024],[-51.0918,-26.6248],[-51.0735,-26.6218],[-51.0607,-26.6368],[-51.0445,-26.6404],[-51.0363,-26.6357],[-51.0243,-26.6466],[-51.015,-26.6452],[-50.9997,-26.6548],[-50.9863,-26.6476],[-50.9751,-26.6638],[-50.97,-26.6558],[-50.9611,-26.656],[-50.9529,-26.6693],[-50.926,-26.671],[-50.921,-26.6824],[-50.929,-26.6918],[-50.9044,-26.7016],[-50.9108,-26.7128],[-50.8832,-26.7135],[-50.8738,-26.7231],[-50.8775,-26.7304],[-50.8629,-26.7285],[-50.8684,-26.7396],[-50.8596,-26.749],[-50.8392,-26.7463],[-50.8197,-26.7618],[-50.7753,-26.7691],[-50.7337,-26.7543],[-50.7337,-26.761],[-50.759,-26.7785],[-50.7295,-26.7832],[-50.7154,-26.7776],[-50.711,-26.7843],[-50.7179,-26.7946],[-50.6884,-26.7917],[-50.6801,-26.8071],[-50.6562,-26.8024],[-50.6429,-26.819],[-50.6445,-26.8273],[-50.6245,-26.8281],[-50.6171,-26.8357],[-50.5936,-26.8146],[-50.5765,-26.8165],[-50.5304,-26.7965],[-50.5282,-26.809],[-50.5208,-26.8137],[-50.508,-26.82],[-50.4846,-26.8199],[-50.4665,-26.8371],[-50.3901,-26.8185],[-50.3781,-26.8284],[-50.3696,-26.8246],[-50.3624,-26.8331],[-50.3404,-26.8279],[-50.3207,-26.8381],[-50.2951,-26.8415],[-50.2866,-26.835],[-50.2682,-26.8539],[-50.2557,-26.8507]]]},"properties":{"OBJECTID":54,"DME_CD":"11146","DME_NM":"Igua\u00e7u","DME_DMA_CD":"111","DME_AR_KM2":65740.8771838811}}]}