{"type":"FeatureCollection","fonte":"ANA/SNIRH, serviço \"Rios principais\" (SNIRH2016/Rios_principais, camada Curso d'Água), https://portal1.snirh.gov.br/arcgis/rest/services/SNIRH2016/Cursos_Agua_dominialidade/FeatureServer","features":[{"type":"Feature","properties":{"nome":"Rio Capanema","classe":"afluente","nome_ana":"Rio Capanema","dominio":"Estadual","area_montante_km2":1239.88},"geometry":{"type":"LineString","coordinates":[[-53.5378,-25.9697],[-53.5404,-25.966],[-53.5423,-25.9619],[-53.5456,-25.9579],[-53.5503,-25.9563],[-53.5567,-25.9567],[-53.5597,-25.9565],[-53.5626,-25.9562],[-53.5629,-25.9562]]}},{"type":"Feature","properties":{"nome":"Rio Capanema","classe":"afluente","nome_ana":"Rio Capanema","dominio":"Estadual","area_montante_km2":1134},"geometry":{"type":"LineString","coordinates":[[-53.5421,-26.004],[-53.542,-26.0039],[-53.542,-26.0039],[-53.5418,-26.0037],[-53.5395,-26.0014],[-53.538,-25.9977],[-53.5387,-25.9933],[-53.542,-25.9913],[-53.5469,-25.9903],[-53.5679,-25.9902],[-53.5705,-25.9892],[-53.5707,-25.9864],[-53.566,-25.9825],[-53.557,-25.9808],[-53.55,-25.977],[-53.5357,-25.9784],[-53.5328,-25.974],[-53.5358,-25.9714],[-53.5375,-25.97],[-53.5378,-25.9697]]}},{"type":"Feature","properties":{"nome":"Rio Capanema","classe":"afluente","nome_ana":"Rio Capanema","dominio":"Estadual","area_montante_km2":1457.91},"geometry":{"type":"LineString","coordinates":[[-53.5629,-25.9562],[-53.5699,-25.9556],[-53.5726,-25.9562],[-53.5774,-25.9561],[-53.5796,-25.9547],[-53.5795,-25.952],[-53.5779,-25.9494],[-53.5707,-25.9435],[-53.5659,-25.9413],[-53.5582,-25.9401],[-53.55,-25.942],[-53.5462,-25.9422],[-53.5425,-25.9394],[-53.5445,-25.9365],[-53.5485,-25.9331],[-53.5549,-25.9311],[-53.5771,-25.9297],[-53.5797,-25.9291],[-53.5834,-25.9261],[-53.5837,-25.9234],[-53.5817,-25.9188],[-53.5809,-25.9108],[-53.582,-25.9067],[-53.5804,-25.9046],[-53.5743,-25.9014],[-53.5747,-25.8978],[-53.5799,-25.8964],[-53.5859,-25.8928],[-53.5852,-25.8898],[-53.5823,-25.8889],[-53.5765,-25.8884],[-53.5737,-25.8897],[-53.5659,-25.8958],[-53.5612,-25.894],[-53.5573,-25.8899],[-53.5561,-25.8863],[-53.5588,-25.883],[-53.5671,-25.8776],[-53.5718,-25.8767],[-53.5804,-25.8768],[-53.5836,-25.8752],[-53.5857,-25.8701],[-53.5913,-25.8654],[-53.597,-25.8633],[-53.5941,-25.8607],[-53.5756,-25.8601],[-53.5717,-25.8633],[-53.5688,-25.863],[-53.5678,-25.8575],[-53.57,-25.8494],[-53.5699,-25.8453],[-53.5686,-25.8419],[-53.5691,-25.8408],[-53.5692,-25.8407],[-53.5695,-25.84],[-53.5705,-25.8377]]}},{"type":"Feature","properties":{"nome":"Rio Capanema","classe":"afluente","nome_ana":"Rio Capanema","dominio":"Estadual","area_montante_km2":260.282},"geometry":{"type":"LineString","coordinates":[[-53.3921,-26.1062],[-53.3929,-26.106],[-53.3964,-26.1051],[-53.3988,-26.1059],[-53.4117,-26.1026],[-53.4155,-26.0961],[-53.4214,-26.0946],[-53.425,-26.0893],[-53.4254,-26.0887],[-53.4255,-26.0885]]}},{"type":"Feature","properties":{"nome":"Rio Capanema","classe":"afluente","nome_ana":"Rio Capanema","dominio":"Estadual","area_montante_km2":499.417},"geometry":{"type":"LineString","coordinates":[[-53.5323,-26.0914],[-53.5323,-26.0913],[-53.5321,-26.091],[-53.532,-26.0909],[-53.5316,-26.0904],[-53.5282,-26.0851],[-53.5267,-26.0795],[-53.5279,-26.077],[-53.5343,-26.0707],[-53.5303,-26.0707],[-53.5256,-26.074],[-53.5217,-26.0781],[-53.5193,-26.0792],[-53.5166,-26.0794],[-53.5103,-26.0825],[-53.5109,-26.0785],[-53.5145,-26.0704],[-53.5189,-26.0658],[-53.5243,-26.0646],[-53.5323,-26.0651],[-53.5383,-26.0643],[-53.5334,-26.0594],[-53.526,-26.0566],[-53.5216,-26.0549],[-53.519,-26.054],[-53.5176,-26.0534]]}},{"type":"Feature","properties":{"nome":"Rio Capanema","classe":"afluente","nome_ana":"Rio Capanema","dominio":"Estadual","area_montante_km2":1606.54},"geometry":{"type":"LineString","coordinates":[[-53.5705,-25.8377],[-53.575,-25.8385],[-53.5806,-25.8414],[-53.5844,-25.8393],[-53.5846,-25.8288],[-53.5793,-25.8254],[-53.5752,-25.8261],[-53.5695,-25.8286],[-53.5663,-25.8278],[-53.5656,-25.8248],[-53.5703,-25.82],[-53.5739,-25.8173],[-53.5791,-25.8171],[-53.5849,-25.8183],[-53.5945,-25.8227],[-53.6002,-25.8216],[-53.6002,-25.819],[-53.598,-25.8163],[-53.5976,-25.8158],[-53.597,-25.8151]]}},{"type":"Feature","properties":{"nome":"Rio Capanema","classe":"afluente","nome_ana":"Rio Capanema","dominio":"Estadual","area_montante_km2":151.17},"geometry":{"type":"LineString","coordinates":[[-53.5518,-26.0981],[-53.5517,-26.0978],[-53.5507,-26.0912],[-53.5475,-26.0927],[-53.5427,-26.0912],[-53.5401,-26.0906],[-53.5364,-26.0927],[-53.5323,-26.0914],[-53.5323,-26.0914]]}},{"type":"Feature","properties":{"nome":"Rio Capanema","classe":"afluente","nome_ana":"Rio Capanema","dominio":"Estadual","area_montante_km2":126.248},"geometry":{"type":"LineString","coordinates":[[-53.3253,-26.2433],[-53.3236,-26.2394],[-53.321,-26.2294],[-53.3203,-26.2236],[-53.3221,-26.2199],[-53.3303,-26.2118],[-53.3289,-26.2062],[-53.3299,-26.2025],[-53.3324,-26.1993],[-53.3375,-26.1905],[-53.3503,-26.1825],[-53.3537,-26.1796],[-53.3586,-26.1738],[-53.3608,-26.168],[-53.3619,-26.1564],[-53.3643,-26.1478],[-53.3648,-26.1414],[-53.3695,-26.1377],[-53.3809,-26.1345],[-53.3856,-26.1301],[-53.3867,-26.1212],[-53.3936,-26.1142],[-53.3935,-26.112],[-53.3926,-26.1079],[-53.3922,-26.1066],[-53.3921,-26.1062]]}},{"type":"Feature","properties":{"nome":"Rio Capanema","classe":"afluente","nome_ana":"Rio Capanema","dominio":"Estadual","area_montante_km2":408.242},"geometry":{"type":"LineString","coordinates":[[-53.4255,-26.0885],[-53.426,-26.0883],[-53.4329,-26.0851],[-53.4359,-26.0763],[-53.4388,-26.0729],[-53.444,-26.0691],[-53.4475,-26.0685],[-53.4498,-26.0705],[-53.4498,-26.0784],[-53.458,-26.0834],[-53.4644,-26.0846],[-53.4677,-26.0833],[-53.4691,-26.0814],[-53.4692,-26.0789],[-53.4667,-26.0735],[-53.4667,-26.071],[-53.47,-26.0674],[-53.473,-26.0669],[-53.4768,-26.0675],[-53.4828,-26.0716],[-53.489,-26.0725],[-53.4931,-26.07],[-53.4934,-26.0655],[-53.4904,-26.0616],[-53.4872,-26.0584],[-53.4868,-26.0556],[-53.4925,-26.0571],[-53.4962,-26.0642],[-53.5038,-26.0629],[-53.5115,-26.0652],[-53.5144,-26.064],[-53.5156,-26.0562],[-53.517,-26.0543],[-53.5175,-26.0536],[-53.5176,-26.0534]]}},{"type":"Feature","properties":{"nome":"Rio Capanema","classe":"afluente","nome_ana":"Rio Capanema","dominio":"Estadual","area_montante_km2":957.521},"geometry":{"type":"LineString","coordinates":[[-53.5252,-26.0271],[-53.5254,-26.027],[-53.5261,-26.0267],[-53.5292,-26.0253],[-53.5309,-26.0228],[-53.5316,-26.0156],[-53.5335,-26.0107],[-53.5396,-26.007],[-53.5402,-26.0063],[-53.542,-26.0041],[-53.5421,-26.004]]}},{"type":"Feature","properties":{"nome":"Rio Capanema","classe":"afluente","nome_ana":"Rio Capanema","dominio":"Estadual","area_montante_km2":91.5714},"geometry":{"type":"LineString","coordinates":[[-53.6262,-26.2399],[-53.6219,-26.2338],[-53.6175,-26.2295],[-53.6047,-26.2195],[-53.6001,-26.2134],[-53.5979,-26.2077],[-53.5975,-26.2048],[-53.5967,-26.195],[-53.5945,-26.1935],[-53.5896,-26.1929],[-53.5832,-26.191],[-53.581,-26.1881],[-53.578,-26.181],[-53.5711,-26.1725],[-53.5701,-26.1696],[-53.5691,-26.161],[-53.5644,-26.1563],[-53.5662,-26.1544],[-53.5685,-26.1498],[-53.5682,-26.144],[-53.5662,-26.1399],[-53.5594,-26.1352],[-53.562,-26.1291],[-53.5613,-26.126],[-53.5558,-26.1229],[-53.5534,-26.1198],[-53.554,-26.1131],[-53.5551,-26.1108],[-53.5584,-26.1076],[-53.5548,-26.1068],[-53.5485,-26.1066],[-53.5512,-26.0996],[-53.5518,-26.0981]]}},{"type":"Feature","properties":{"nome":"Rio Capanema","classe":"afluente","nome_ana":"Rio Capanema","dominio":"Estadual","area_montante_km2":1968.38},"geometry":{"type":"LineString","coordinates":[[-53.597,-25.8151],[-53.5951,-25.8128],[-53.5936,-25.8098],[-53.5893,-25.8021],[-53.5711,-25.7999],[-53.5684,-25.7984],[-53.5663,-25.7963],[-53.5659,-25.7921],[-53.5674,-25.7881],[-53.5692,-25.7853],[-53.5701,-25.782],[-53.5747,-25.7761],[-53.574,-25.7711],[-53.5771,-25.7673],[-53.5831,-25.766],[-53.5863,-25.766],[-53.5921,-25.7689],[-53.6017,-25.7725],[-53.6066,-25.7695],[-53.6047,-25.7628],[-53.5973,-25.759],[-53.5966,-25.7525],[-53.5894,-25.7476],[-53.5884,-25.7456],[-53.5879,-25.7396],[-53.5908,-25.7335],[-53.5908,-25.7263],[-53.5939,-25.7239],[-53.5981,-25.7246],[-53.6019,-25.7244],[-53.6057,-25.7224],[-53.6101,-25.7215],[-53.6091,-25.7193],[-53.6015,-25.7186],[-53.5947,-25.7157],[-53.5946,-25.7108],[-53.5974,-25.7095],[-53.61,-25.7095],[-53.6118,-25.7055],[-53.6069,-25.6992],[-53.5981,-25.6961],[-53.5923,-25.6926],[-53.5905,-25.6904],[-53.5906,-25.6865],[-53.5928,-25.6844],[-53.5962,-25.6837],[-53.6087,-25.6851],[-53.6168,-25.6803],[-53.6179,-25.6763],[-53.6157,-25.6744],[-53.6144,-25.6711],[-53.6171,-25.6689],[-53.6241,-25.6664],[-53.625,-25.6636],[-53.6223,-25.6626],[-53.6105,-25.6617],[-53.6086,-25.6589],[-53.6106,-25.6519],[-53.6168,-25.6492],[-53.6197,-25.6461],[-53.6274,-25.6427],[-53.6312,-25.6417],[-53.635,-25.6394],[-53.6349,-25.6366],[-53.6315,-25.6343],[-53.6282,-25.6342],[-53.6216,-25.6369],[-53.614,-25.6389],[-53.6096,-25.642],[-53.6073,-25.6456],[-53.605,-25.648],[-53.6007,-25.6492],[-53.5985,-25.6475],[-53.5986,-25.6454],[-53.6085,-25.6357],[-53.6094,-25.6324],[-53.6099,-25.6243],[-53.6085,-25.6211],[-53.5969,-25.6193],[-53.5951,-25.6165],[-53.597,-25.6146],[-53.608,-25.6109],[-53.6108,-25.6078],[-53.6073,-25.6063],[-53.6028,-25.6058],[-53.5968,-25.608],[-53.593,-25.6085],[-53.591,-25.6047],[-53.5941,-25.6004],[-53.5985,-25.5981],[-53.6023,-25.5981],[-53.61,-25.5997],[-53.6166,-25.6003],[-53.6207,-25.5967],[-53.6195,-25.5931],[-53.6129,-25.5891],[-53.6084,-25.588],[-53.6018,-25.5874],[-53.5919,-25.5876],[-53.5891,-25.5892],[-53.5856,-25.5902],[-53.5818,-25.5886],[-53.5805,-25.5864],[-53.5804,-25.5825],[-53.5835,-25.5781],[-53.5867,-25.5733],[-53.5882,-25.571],[-53.5882,-25.5709],[-53.5883,-25.5708]]}},{"type":"Feature","properties":{"nome":"Rio Capanema","classe":"afluente","nome_ana":"Rio Capanema","dominio":"Estadual","area_montante_km2":920.983},"geometry":{"type":"LineString","coordinates":[[-53.5176,-26.0534],[-53.52,-26.0508],[-53.5265,-26.052],[-53.5303,-26.0506],[-53.5329,-26.0494],[-53.5377,-26.0504],[-53.5432,-26.0495],[-53.5451,-26.0475],[-53.5452,-26.0443],[-53.539,-26.0371],[-53.5261,-26.0317],[-53.5253,-26.0275],[-53.5252,-26.0271]]}},{"type":"Feature","properties":{"nome":"Rio Chopim","classe":"afluente","nome_ana":"Rio Chopim","dominio":"Estadual","area_montante_km2":1200.83},"geometry":{"type":"LineString","coordinates":[[-51.9741,-26.3747],[-51.9743,-26.3748],[-51.9744,-26.3748],[-51.9801,-26.377],[-51.9915,-26.3737],[-51.9989,-26.3731],[-52.0026,-26.3727],[-52.007,-26.3704],[-52.0191,-26.3626],[-52.0264,-26.3622],[-52.0305,-26.3585],[-52.0369,-26.3558],[-52.0393,-26.3541],[-52.0415,-26.3498],[-52.0395,-26.3466],[-52.0309,-26.3395],[-52.0334,-26.337],[-52.038,-26.3342],[-52.0482,-26.3365],[-52.0521,-26.335],[-52.0524,-26.3314],[-52.0507,-26.3295],[-52.0448,-26.327],[-52.0411,-26.3223],[-52.0436,-26.3172],[-52.0538,-26.3189],[-52.0602,-26.3178],[-52.064,-26.3158],[-52.0704,-26.3102],[-52.0742,-26.3105],[-52.0806,-26.3136],[-52.0878,-26.3146],[-52.0905,-26.3127],[-52.0946,-26.304],[-52.0981,-26.3011],[-52.1035,-26.2995],[-52.1059,-26.3006],[-52.1064,-26.3044],[-52.1039,-26.3086],[-52.1033,-26.3114],[-52.1049,-26.3139],[-52.1107,-26.3161],[-52.1126,-26.3193],[-52.1117,-26.3217],[-52.1104,-26.3242],[-52.1124,-26.3272],[-52.1214,-26.3335],[-52.1317,-26.3263],[-52.1347,-26.3259],[-52.136,-26.3287],[-52.1258,-26.3395],[-52.1234,-26.343],[-52.1234,-26.3453],[-52.127,-26.3475],[-52.1324,-26.3456],[-52.1352,-26.341],[-52.1467,-26.3359],[-52.1487,-26.334],[-52.1471,-26.3266],[-52.1516,-26.3187],[-52.1656,-26.314],[-52.1682,-26.3145],[-52.1685,-26.3174],[-52.161,-26.3271],[-52.16,-26.3301],[-52.1615,-26.3326],[-52.1674,-26.3343],[-52.1695,-26.3358],[-52.1693,-26.341]]}},{"type":"Feature","properties":{"nome":"Rio Chopim","classe":"afluente","nome_ana":"Rio Chopim","dominio":"Estadual","area_montante_km2":3135.93},"geometry":{"type":"LineString","coordinates":[[-52.5868,-26.0711],[-52.587,-26.071],[-52.5911,-26.0676],[-52.5958,-26.0618],[-52.5981,-26.0598],[-52.5983,-26.0596]]}},{"type":"Feature","properties":{"nome":"Rio Chopim","classe":"afluente","nome_ana":"Rio Chopim","dominio":"Estadual","area_montante_km2":3055.32},"geometry":{"type":"LineString","coordinates":[[-52.5738,-26.1137],[-52.5741,-26.1137],[-52.5745,-26.1136],[-52.5784,-26.1127],[-52.5864,-26.1149],[-52.5926,-26.1124],[-52.599,-26.1113],[-52.6029,-26.1084],[-52.6037,-26.1043],[-52.603,-26.0997],[-52.5965,-26.0922],[-52.5961,-26.089],[-52.5996,-26.0874],[-52.6086,-26.089]]}},{"type":"Feature","properties":{"nome":"Rio Chopim","classe":"afluente","nome_ana":"Rio Chopim","dominio":"Estadual","area_montante_km2":475.606},"geometry":{"type":"LineString","coordinates":[[-51.763,-26.4676],[-51.7646,-26.4651],[-51.7653,-26.461],[-51.7707,-26.4607],[-51.7742,-26.4583],[-51.7772,-26.4526],[-51.7788,-26.4454],[-51.778,-26.4417],[-51.772,-26.4339],[-51.7728,-26.4299],[-51.7764,-26.4256],[-51.7812,-26.4183],[-51.7896,-26.415],[-51.7934,-26.4119],[-51.7982,-26.404],[-51.8011,-26.404],[-51.8033,-26.4053],[-51.8096,-26.4129],[-51.8154,-26.4187],[-51.8223,-26.4203],[-51.8248,-26.4184],[-51.8267,-26.4145],[-51.8302,-26.4139],[-51.8328,-26.415],[-51.8383,-26.4193],[-51.8408,-26.4206],[-51.8447,-26.4209],[-51.8485,-26.4178],[-51.8507,-26.4093],[-51.8548,-26.4054],[-51.8602,-26.4039],[-51.8642,-26.401],[-51.8672,-26.4007],[-51.8711,-26.402],[-51.8775,-26.4063],[-51.8823,-26.4068],[-51.8858,-26.4036],[-51.8889,-26.3964],[-51.8905,-26.3934],[-51.8963,-26.3967],[-51.9001,-26.3973],[-51.9039,-26.4044],[-51.9074,-26.4071],[-51.9111,-26.4081],[-51.9142,-26.4076],[-51.9143,-26.4076],[-51.9159,-26.4053],[-51.9162,-26.4049],[-51.9162,-26.4048]]}},{"type":"Feature","properties":{"nome":"Rio Chopim","classe":"afluente","nome_ana":"Rio Chopim","dominio":"Estadual","area_montante_km2":6757.16},"geometry":{"type":"LineString","coordinates":[[-52.8741,-25.8016],[-52.8742,-25.8015],[-52.8794,-25.7965],[-52.8832,-25.7937],[-52.8876,-25.7916],[-52.8914,-25.7907],[-52.8952,-25.791],[-52.901,-25.793],[-52.9052,-25.7966],[-52.9103,-25.7991],[-52.9161,-25.7986],[-52.9224,-25.7952],[-52.925,-25.7919],[-52.9302,-25.7882],[-52.9432,-25.783],[-52.9447,-25.7788],[-52.9424,-25.7752],[-52.9408,-25.7729],[-52.9273,-25.764],[-52.9232,-25.7603],[-52.9211,-25.7572],[-52.9204,-25.7512],[-52.921,-25.7481],[-52.9263,-25.7455],[-52.9442,-25.7506],[-52.9576,-25.751],[-52.9614,-25.7525],[-52.9647,-25.7604],[-52.963,-25.7745],[-52.9639,-25.7805],[-52.9677,-25.7847],[-52.9727,-25.7857],[-52.9728,-25.7857]]}},{"type":"Feature","properties":{"nome":"Rio Chopim","classe":"afluente","nome_ana":"Rio Chopim","dominio":"Estadual","area_montante_km2":1727.57},"geometry":{"type":"LineString","coordinates":[[-52.2422,-26.3062],[-52.2422,-26.3061],[-52.2429,-26.3054],[-52.243,-26.3053],[-52.2451,-26.3032],[-52.2485,-26.2982],[-52.2494,-26.2953],[-52.2494,-26.2901],[-52.247,-26.2787],[-52.2496,-26.2773],[-52.256,-26.2804],[-52.2584,-26.2828],[-52.2594,-26.2979],[-52.262,-26.3005],[-52.268,-26.2984],[-52.27,-26.2912],[-52.2794,-26.288],[-52.2858,-26.2891],[-52.2902,-26.2874],[-52.2961,-26.2787],[-52.3003,-26.2879],[-52.304,-26.2882],[-52.3062,-26.2864],[-52.3113,-26.2659],[-52.3154,-26.2646],[-52.3204,-26.2667],[-52.3262,-26.2718],[-52.3304,-26.2789],[-52.3336,-26.2807],[-52.3339,-26.2808],[-52.3377,-26.2812],[-52.3379,-26.2813]]}},{"type":"Feature","properties":{"nome":"Rio Chopim","classe":"afluente","nome_ana":"Rio Chopim","dominio":"Estadual","area_montante_km2":3106.97},"geometry":{"type":"LineString","coordinates":[[-52.6086,-26.089],[-52.609,-26.089],[-52.6104,-26.0889],[-52.6105,-26.0889],[-52.6181,-26.0886],[-52.6239,-26.0894],[-52.6274,-26.0881],[-52.6276,-26.0848],[-52.6263,-26.0815],[-52.6221,-26.0781],[-52.6183,-26.0771],[-52.6065,-26.0775],[-52.6006,-26.0747],[-52.5915,-26.0751],[-52.5888,-26.0746],[-52.587,-26.0715],[-52.5868,-26.0712],[-52.5868,-26.0712],[-52.5868,-26.0711]]}},{"type":"Feature","properties":{"nome":"Rio Chopim","classe":"afluente","nome_ana":"Rio Chopim","dominio":"Estadual","area_montante_km2":6973.58},"geometry":{"type":"LineString","coordinates":[[-52.9728,-25.7857],[-52.973,-25.7856],[-52.9757,-25.7841],[-52.9778,-25.7806],[-52.9783,-25.7739],[-52.9738,-25.768],[-52.9737,-25.7631],[-52.9789,-25.753],[-52.9795,-25.7475],[-52.977,-25.7444],[-52.9674,-25.7394],[-52.9575,-25.7354],[-52.9554,-25.734],[-52.9528,-25.7297],[-52.9518,-25.7184],[-52.9516,-25.7165]]}},{"type":"Feature","properties":{"nome":"Rio Chopim","classe":"afluente","nome_ana":"Rio Chopim","dominio":"Estadual","area_montante_km2":3673.3},"geometry":{"type":"LineString","coordinates":[[-52.733,-26.0081],[-52.7364,-26.0003],[-52.7427,-25.992],[-52.7445,-25.9881],[-52.7445,-25.9852],[-52.743,-25.9832],[-52.7295,-25.9749],[-52.7233,-25.9674],[-52.7229,-25.966],[-52.7226,-25.9653],[-52.7226,-25.9652],[-52.7225,-25.9649]]}},{"type":"Feature","properties":{"nome":"Rio Chopim","classe":"afluente","nome_ana":"Rio Chopim","dominio":"Estadual","area_montante_km2":2876.05},"geometry":{"type":"LineString","coordinates":[[-52.568,-26.153],[-52.5681,-26.1524],[-52.5682,-26.152],[-52.569,-26.1491],[-52.5671,-26.1456],[-52.5598,-26.1371],[-52.5604,-26.1345],[-52.5681,-26.1272],[-52.57,-26.1243],[-52.5724,-26.1171],[-52.5735,-26.1145],[-52.5738,-26.1137]]}},{"type":"Feature","properties":{"nome":"Rio Chopim","classe":"afluente","nome_ana":"Rio Chopim","dominio":"Estadual","area_montante_km2":7430.54},"geometry":{"type":"LineString","coordinates":[[-53.0613,-25.6161],[-53.0614,-25.6162],[-53.0616,-25.6163],[-53.062,-25.6165],[-53.0642,-25.6177],[-53.0707,-25.6198],[-53.0764,-25.619],[-53.0802,-25.6169],[-53.0836,-25.6127],[-53.0845,-25.6076],[-53.0826,-25.6032],[-53.0761,-25.6004],[-53.052,-25.5954],[-53.0499,-25.5916],[-53.0533,-25.5885],[-53.0568,-25.5874],[-53.0663,-25.5862],[-53.072,-25.5861],[-53.0778,-25.5869],[-53.0878,-25.5892],[-53.0895,-25.5896],[-53.0899,-25.5897]]}},{"type":"Feature","properties":{"nome":"Rio Chopim","classe":"afluente","nome_ana":"Rio Chopim","dominio":"Estadual","area_montante_km2":6615.61},"geometry":{"type":"LineString","coordinates":[[-52.9005,-25.813],[-52.9006,-25.812],[-52.9007,-25.8108],[-52.8987,-25.8057],[-52.8956,-25.8041],[-52.89,-25.8037],[-52.8853,-25.8046],[-52.8809,-25.8067],[-52.8744,-25.8117],[-52.8717,-25.813],[-52.8676,-25.8108],[-52.8681,-25.8073],[-52.8737,-25.802],[-52.8737,-25.802],[-52.8741,-25.8016]]}},{"type":"Feature","properties":{"nome":"Rio Chopim","classe":"afluente","nome_ana":"Rio Chopim","dominio":"Estadual","area_montante_km2":4710.31},"geometry":{"type":"LineString","coordinates":[[-52.8403,-25.8588],[-52.8414,-25.8589],[-52.8415,-25.8589],[-52.8454,-25.8596],[-52.8525,-25.8642],[-52.8554,-25.8655],[-52.8602,-25.8651],[-52.8624,-25.8635],[-52.8637,-25.8625]]}},{"type":"Feature","properties":{"nome":"Rio Chopim","classe":"afluente","nome_ana":"Rio Chopim","dominio":"Estadual","area_montante_km2":4620.12},"geometry":{"type":"LineString","coordinates":[[-52.8079,-25.9017],[-52.8079,-25.9015],[-52.8079,-25.9006],[-52.8079,-25.9003],[-52.8078,-25.8975],[-52.813,-25.8911],[-52.814,-25.8867],[-52.8133,-25.884],[-52.8071,-25.8736],[-52.8068,-25.871],[-52.8083,-25.8691],[-52.8118,-25.8681],[-52.8214,-25.872],[-52.8252,-25.8722],[-52.8305,-25.8691],[-52.8381,-25.8611],[-52.8397,-25.8595],[-52.8403,-25.8588]]}},{"type":"Feature","properties":{"nome":"Rio Chopim","classe":"afluente","nome_ana":"Rio Chopim","dominio":"Estadual","area_montante_km2":2307.38},"geometry":{"type":"LineString","coordinates":[[-52.4387,-26.2437],[-52.4388,-26.2436],[-52.4401,-26.2414],[-52.4411,-26.2381],[-52.4436,-26.2343],[-52.4483,-26.2331],[-52.4532,-26.2357],[-52.4539,-26.2323],[-52.4534,-26.2272],[-52.4504,-26.2217],[-52.4441,-26.2236],[-52.4412,-26.2238],[-52.4338,-26.2214],[-52.4298,-26.2185],[-52.4322,-26.2156],[-52.4396,-26.2114],[-52.4401,-26.2091],[-52.436,-26.2057],[-52.4324,-26.2085],[-52.4286,-26.209],[-52.4252,-26.2043],[-52.4348,-26.1994],[-52.4422,-26.2013],[-52.4481,-26.1987],[-52.4503,-26.1998],[-52.4548,-26.2028],[-52.4597,-26.199],[-52.4631,-26.1994],[-52.4669,-26.2023],[-52.4697,-26.2032],[-52.4735,-26.2028],[-52.4767,-26.2014],[-52.4776,-26.1968],[-52.4745,-26.1909],[-52.4748,-26.1886],[-52.4771,-26.184],[-52.4764,-26.18],[-52.4735,-26.1797],[-52.4664,-26.185],[-52.4631,-26.1866],[-52.4586,-26.1859],[-52.4576,-26.182],[-52.4628,-26.1762],[-52.4629,-26.1761],[-52.4629,-26.1761]]}},{"type":"Feature","properties":{"nome":"Rio Chopim","classe":"afluente","nome_ana":"Rio Chopim","dominio":"Estadual","area_montante_km2":33.8321},"geometry":{"type":"LineString","coordinates":[[-51.5209,-26.5781],[-51.5259,-26.5752],[-51.5296,-26.5705],[-51.5366,-26.5648],[-51.5402,-26.5609],[-51.544,-26.5487],[-51.5472,-26.5467],[-51.5552,-26.5452],[-51.5595,-26.5419],[-51.5645,-26.5397],[-51.5688,-26.5331],[-51.5724,-26.5294],[-51.5783,-26.5266],[-51.5792,-26.5262],[-51.5793,-26.5261]]}},{"type":"Feature","properties":{"nome":"Rio Chopim","classe":"afluente","nome_ana":"Rio Chopim","dominio":"Estadual","area_montante_km2":1934.46},"geometry":{"type":"LineString","coordinates":[[-52.3379,-26.2813],[-52.3383,-26.2807],[-52.3419,-26.2762],[-52.3514,-26.2741],[-52.357,-26.271],[-52.3609,-26.2666],[-52.3679,-26.2592],[-52.373,-26.2612],[-52.3759,-26.261],[-52.3816,-26.2594],[-52.3867,-26.2565],[-52.3933,-26.2501],[-52.3965,-26.2489],[-52.3994,-26.2488],[-52.4048,-26.251],[-52.4069,-26.2537],[-52.4058,-26.2574],[-52.4039,-26.2595],[-52.3922,-26.2635],[-52.3886,-26.2664]]}},{"type":"Feature","properties":{"nome":"Rio Chopim","classe":"afluente","nome_ana":"Rio Chopim","dominio":"Estadual","area_montante_km2":7470.33},"geometry":{"type":"LineString","coordinates":[[-53.0899,-25.5897],[-53.0904,-25.5898],[-53.0966,-25.5905],[-53.1004,-25.5903],[-53.1079,-25.5871],[-53.1132,-25.5823],[-53.1145,-25.5798],[-53.1133,-25.5768],[-53.1077,-25.5756],[-53.1026,-25.5757],[-53.0963,-25.5768],[-53.0821,-25.5807],[-53.0789,-25.5808],[-53.0765,-25.5798],[-53.0731,-25.5764],[-53.0718,-25.5723],[-53.072,-25.5674],[-53.072,-25.5671],[-53.072,-25.5666],[-53.0721,-25.5662]]}},{"type":"Feature","properties":{"nome":"Rio Chopim","classe":"afluente","nome_ana":"Rio Chopim","dominio":"Estadual","area_montante_km2":2448.32},"geometry":{"type":"LineString","coordinates":[[-52.4629,-26.1761],[-52.4637,-26.1752],[-52.4675,-26.1709],[-52.4718,-26.1681],[-52.4766,-26.1672],[-52.4846,-26.168],[-52.4884,-26.1725],[-52.4936,-26.1742],[-52.4958,-26.176],[-52.5017,-26.1748],[-52.5064,-26.1706],[-52.5104,-26.1707],[-52.511,-26.1662],[-52.5159,-26.1597],[-52.5169,-26.1554],[-52.5201,-26.1523],[-52.5262,-26.1527],[-52.529,-26.1541],[-52.5304,-26.1584],[-52.5296,-26.1616],[-52.526,-26.1671],[-52.5261,-26.1737],[-52.5337,-26.1702],[-52.5396,-26.169],[-52.5403,-26.1688],[-52.5406,-26.1688]]}},{"type":"Feature","properties":{"nome":"Rio Chopim","classe":"afluente","nome_ana":"Rio Chopim","dominio":"Estadual","area_montante_km2":2008.69},"geometry":{"type":"LineString","coordinates":[[-52.3886,-26.2664],[-52.3886,-26.2686],[-52.3887,-26.2689],[-52.3887,-26.2704],[-52.3888,-26.2705],[-52.3904,-26.2726],[-52.3928,-26.2743],[-52.3965,-26.2745],[-52.4003,-26.2733],[-52.4114,-26.2674],[-52.4161,-26.2641],[-52.4193,-26.2603],[-52.4202,-26.2583],[-52.4208,-26.2543],[-52.4169,-26.2383],[-52.4199,-26.2351],[-52.4301,-26.2457],[-52.4348,-26.2462],[-52.4367,-26.245],[-52.4387,-26.2437],[-52.4387,-26.2437]]}},{"type":"Feature","properties":{"nome":"Rio Chopim","classe":"afluente","nome_ana":"Rio Chopim","dominio":"Estadual","area_montante_km2":3624.68},"geometry":{"type":"LineString","coordinates":[[-52.6631,-26.0327],[-52.6637,-26.0321],[-52.6638,-26.032],[-52.6667,-26.029],[-52.6682,-26.0238],[-52.6669,-26.0172],[-52.6609,-26.0098],[-52.6629,-26.0052],[-52.6677,-25.9994],[-52.6724,-25.9999],[-52.6832,-26.0084],[-52.6874,-26.0081],[-52.6944,-26.0047],[-52.7021,-26.0059],[-52.7075,-26.0097],[-52.7137,-26.016],[-52.7175,-26.0181],[-52.7233,-26.0169],[-52.7271,-26.0149],[-52.7319,-26.0106],[-52.7325,-26.0093],[-52.7329,-26.0084],[-52.733,-26.0081]]}},{"type":"Feature","properties":{"nome":"Rio Chopim","classe":"afluente","nome_ana":"Rio Chopim","dominio":"Estadual","area_montante_km2":3346.84},"geometry":{"type":"LineString","coordinates":[[-52.5983,-26.0596],[-52.5987,-26.0596],[-52.6059,-26.0597],[-52.6097,-26.0583],[-52.6136,-26.0582],[-52.6213,-26.0609],[-52.6294,-26.0597],[-52.6344,-26.0553],[-52.6384,-26.0547],[-52.6428,-26.0531],[-52.6461,-26.0483],[-52.643,-26.0449],[-52.6396,-26.0427],[-52.6364,-26.0416],[-52.6266,-26.0354],[-52.6265,-26.033],[-52.6265,-26.0327],[-52.6265,-26.032],[-52.6265,-26.0318]]}},{"type":"Feature","properties":{"nome":"Rio Chopim","classe":"afluente","nome_ana":"Rio Chopim","dominio":"Estadual","area_montante_km2":3401.6},"geometry":{"type":"LineString","coordinates":[[-52.6265,-26.0318],[-52.6268,-26.0316],[-52.6293,-26.0304],[-52.6345,-26.0304],[-52.6451,-26.0352],[-52.6509,-26.0364],[-52.6566,-26.0359],[-52.6629,-26.0328],[-52.6631,-26.0327]]}},{"type":"Feature","properties":{"nome":"Rio Chopim","classe":"afluente","nome_ana":"Rio Chopim","dominio":"Estadual","area_montante_km2":3856.3},"geometry":{"type":"LineString","coordinates":[[-52.7225,-25.9649],[-52.7225,-25.9649],[-52.7358,-25.9565],[-52.7437,-25.9533],[-52.7564,-25.9499],[-52.7643,-25.9498],[-52.7675,-25.9508],[-52.7724,-25.9533],[-52.7786,-25.9577],[-52.7814,-25.958],[-52.7817,-25.958],[-52.7836,-25.957],[-52.784,-25.9568],[-52.7843,-25.9567]]}},{"type":"Feature","properties":{"nome":"Rio Chopim","classe":"afluente","nome_ana":"Rio Chopim","dominio":"Estadual","area_montante_km2":7336.77},"geometry":{"type":"LineString","coordinates":[[-52.9732,-25.6922],[-52.9733,-25.6922],[-52.9777,-25.6876],[-52.9835,-25.6777],[-52.9866,-25.6737],[-52.9918,-25.6704],[-52.9982,-25.6709],[-53.0155,-25.6776],[-53.0202,-25.6752],[-53.0213,-25.672],[-53.0209,-25.6693],[-53.0175,-25.6663],[-53.0075,-25.66],[-52.999,-25.6536],[-52.9954,-25.6494],[-52.9943,-25.6471],[-52.9944,-25.6448],[-52.9961,-25.6427],[-52.9988,-25.641],[-53.0047,-25.6412],[-53.0123,-25.6434],[-53.0181,-25.6463],[-53.0335,-25.6614],[-53.0381,-25.6613],[-53.0404,-25.6585],[-53.0416,-25.655],[-53.0415,-25.651],[-53.0379,-25.6352],[-53.0375,-25.6286],[-53.0396,-25.6185],[-53.042,-25.6144],[-53.0449,-25.6125],[-53.048,-25.6118],[-53.0536,-25.6117],[-53.0576,-25.6133],[-53.0613,-25.6161],[-53.0613,-25.6161]]}},{"type":"Feature","properties":{"nome":"Rio Chopim","classe":"afluente","nome_ana":"Rio Chopim","dominio":"Estadual","area_montante_km2":153.173},"geometry":{"type":"LineString","coordinates":[[-51.6333,-26.5149],[-51.6337,-26.5149],[-51.6366,-26.5148],[-51.6442,-26.5098],[-51.6509,-26.509],[-51.6541,-26.5058],[-51.6638,-26.5005],[-51.6712,-26.4994],[-51.6765,-26.4921],[-51.6828,-26.4894],[-51.6888,-26.4836],[-51.692,-26.4834],[-51.6957,-26.4872],[-51.7034,-26.4881],[-51.7071,-26.489],[-51.7095,-26.4895],[-51.7095,-26.4895],[-51.7098,-26.4896]]}},{"type":"Feature","properties":{"nome":"Rio Chopim","classe":"afluente","nome_ana":"Rio Chopim","dominio":"Estadual","area_montante_km2":7034.69},"geometry":{"type":"LineString","coordinates":[[-52.9516,-25.7165],[-52.9517,-25.7164],[-52.9537,-25.7104],[-52.9574,-25.7049],[-52.9614,-25.7009],[-52.9716,-25.6934],[-52.9727,-25.6926],[-52.9729,-25.6925],[-52.9732,-25.6922]]}},{"type":"Feature","properties":{"nome":"Rio Chopim","classe":"afluente","nome_ana":"Rio Chopim","dominio":"Estadual","area_montante_km2":71.2706},"geometry":{"type":"LineString","coordinates":[[-51.5793,-26.5261],[-51.5823,-26.5235],[-51.5864,-26.5157],[-51.589,-26.5132],[-51.5946,-26.5105],[-51.5987,-26.5113],[-51.6011,-26.5103],[-51.6075,-26.5096],[-51.6158,-26.5036],[-51.6197,-26.5036],[-51.6227,-26.5072],[-51.6306,-26.5134],[-51.6329,-26.5147],[-51.6333,-26.5149]]}},{"type":"Feature","properties":{"nome":"Rio Chopim","classe":"afluente","nome_ana":"Rio Chopim","dominio":"Estadual","area_montante_km2":231.122},"geometry":{"type":"LineString","coordinates":[[-51.7098,-26.4896],[-51.7135,-26.4855],[-51.7171,-26.4846],[-51.7223,-26.4857],[-51.7284,-26.4887],[-51.7327,-26.4862],[-51.7339,-26.4805],[-51.7363,-26.4762],[-51.7468,-26.4663],[-51.7506,-26.4659],[-51.7596,-26.4677],[-51.7604,-26.4677],[-51.762,-26.4676],[-51.763,-26.4676]]}},{"type":"Feature","properties":{"nome":"Rio Chopim","classe":"afluente","nome_ana":"Rio Chopim","dominio":"Estadual","area_montante_km2":6489.63},"geometry":{"type":"LineString","coordinates":[[-52.8637,-25.8625],[-52.8636,-25.8623],[-52.8634,-25.862],[-52.862,-25.8598],[-52.8613,-25.8552],[-52.8625,-25.8504],[-52.8624,-25.8452],[-52.8533,-25.8357],[-52.8531,-25.8331],[-52.8574,-25.831],[-52.8612,-25.8303],[-52.8641,-25.8304],[-52.8765,-25.8332],[-52.8803,-25.8332],[-52.8879,-25.8315],[-52.8917,-25.8294],[-52.8949,-25.8264],[-52.8991,-25.82],[-52.9003,-25.8159],[-52.9005,-25.8136],[-52.9005,-25.813]]}},{"type":"Feature","properties":{"nome":"Rio Chopim","classe":"afluente","nome_ana":"Rio Chopim","dominio":"Estadual","area_montante_km2":4502.11},"geometry":{"type":"LineString","coordinates":[[-52.7843,-25.9567],[-52.787,-25.9553],[-52.7886,-25.9527],[-52.7882,-25.9493],[-52.7856,-25.946],[-52.7759,-25.9383],[-52.7762,-25.9347],[-52.7806,-25.9329],[-52.7838,-25.9332],[-52.7933,-25.9381],[-52.7963,-25.9391],[-52.8027,-25.9384],[-52.8074,-25.9362],[-52.8126,-25.9317],[-52.8182,-25.9241],[-52.8205,-25.9163],[-52.8186,-25.9143],[-52.8125,-25.9101],[-52.8079,-25.9017]]}},{"type":"Feature","properties":{"nome":"Rio Chopim","classe":"afluente","nome_ana":"Rio Chopim","dominio":"Estadual","area_montante_km2":1510.95},"geometry":{"type":"LineString","coordinates":[[-52.1693,-26.341],[-52.1695,-26.3412],[-52.1695,-26.3412],[-52.1698,-26.3415],[-52.1723,-26.3434],[-52.1755,-26.3435],[-52.1819,-26.3409],[-52.1855,-26.3373],[-52.1848,-26.3334],[-52.1824,-26.331],[-52.1798,-26.3294],[-52.1764,-26.3254],[-52.1783,-26.3235],[-52.1823,-26.3228],[-52.1863,-26.3196],[-52.189,-26.3193],[-52.1957,-26.3212],[-52.2015,-26.3202],[-52.2082,-26.3246],[-52.2114,-26.3248],[-52.214,-26.3225],[-52.2136,-26.3195],[-52.212,-26.3166],[-52.2066,-26.3109],[-52.1984,-26.3062],[-52.1983,-26.3036],[-52.2019,-26.3026],[-52.2134,-26.3032],[-52.2173,-26.3023],[-52.2271,-26.2955],[-52.2315,-26.2941],[-52.2333,-26.2967],[-52.2331,-26.3023],[-52.2345,-26.3052],[-52.2387,-26.3073],[-52.2395,-26.3071],[-52.2422,-26.3062]]}},{"type":"Feature","properties":{"nome":"Rio Chopim","classe":"afluente","nome_ana":"Rio Chopim","dominio":"Estadual","area_montante_km2":2826.68},"geometry":{"type":"LineString","coordinates":[[-52.5406,-26.1688],[-52.5448,-26.1667],[-52.5453,-26.1611],[-52.5426,-26.156],[-52.546,-26.1554],[-52.5534,-26.1508],[-52.5568,-26.1501],[-52.5669,-26.1527],[-52.5679,-26.1529],[-52.568,-26.153]]}},{"type":"Feature","properties":{"nome":"Rio Chopim","classe":"afluente","nome_ana":"Rio Chopim","dominio":"Estadual","area_montante_km2":764.536},"geometry":{"type":"LineString","coordinates":[[-51.9162,-26.4048],[-51.9164,-26.4045],[-51.9182,-26.402],[-51.9225,-26.3992],[-51.9267,-26.3978],[-51.9335,-26.3884],[-51.9352,-26.3832],[-51.931,-26.379],[-51.923,-26.3796],[-51.9241,-26.3771],[-51.9276,-26.3733],[-51.9328,-26.3698],[-51.9418,-26.3697],[-51.947,-26.366],[-51.9504,-26.3654],[-51.956,-26.3666],[-51.9581,-26.3705],[-51.9664,-26.3707],[-51.9702,-26.3708],[-51.9739,-26.3744],[-51.9741,-26.3747]]}},{"type":"Feature","properties":{"nome":"Rio das Cobras","classe":"afluente","nome_ana":"Rio das Cobras","dominio":"Estadual","area_montante_km2":320.147},"geometry":{"type":"LineString","coordinates":[[-52.7148,-25.386],[-52.7162,-25.3863],[-52.7178,-25.3867],[-52.718,-25.3867]]}},{"type":"Feature","properties":{"nome":"Rio das Cobras","classe":"afluente","nome_ana":"Rio das Cobras","dominio":"Estadual","area_montante_km2":740.489},"geometry":{"type":"LineString","coordinates":[[-52.7837,-25.5391],[-52.7839,-25.5395],[-52.7849,-25.5421],[-52.7847,-25.5476],[-52.783,-25.5511],[-52.7754,-25.5552],[-52.7739,-25.5579],[-52.7751,-25.563],[-52.7805,-25.5651],[-52.7847,-25.5666],[-52.788,-25.5693],[-52.7907,-25.5701]]}},{"type":"Feature","properties":{"nome":"Rio das Cobras","classe":"afluente","nome_ana":"Rio das Cobras","dominio":"Estadual","area_montante_km2":616.531},"geometry":{"type":"LineString","coordinates":[[-52.7413,-25.4329],[-52.7453,-25.4386],[-52.7499,-25.4387],[-52.7538,-25.4361],[-52.7571,-25.4402],[-52.7606,-25.4426],[-52.761,-25.4471],[-52.7574,-25.4513],[-52.7605,-25.4552],[-52.7635,-25.457],[-52.7593,-25.4635],[-52.7609,-25.4659],[-52.7676,-25.4675],[-52.7724,-25.4658],[-52.7741,-25.4685],[-52.7724,-25.4704],[-52.7675,-25.4721],[-52.7652,-25.4767],[-52.7617,-25.4766],[-52.7572,-25.4725],[-52.7555,-25.4755],[-52.7593,-25.4807],[-52.7596,-25.483],[-52.7554,-25.4873],[-52.7543,-25.4896],[-52.7578,-25.4913],[-52.7616,-25.4906],[-52.7699,-25.4831],[-52.7726,-25.4822],[-52.7771,-25.4829],[-52.7801,-25.4854],[-52.7833,-25.4896],[-52.7837,-25.4937],[-52.7824,-25.4984],[-52.781,-25.5005],[-52.7764,-25.5031],[-52.7685,-25.5046],[-52.7646,-25.5081],[-52.7637,-25.5118],[-52.7645,-25.5147],[-52.7674,-25.5187],[-52.7767,-25.5205],[-52.7816,-25.5341],[-52.7834,-25.5384],[-52.7837,-25.5391]]}},{"type":"Feature","properties":{"nome":"Rio das Cobras","classe":"afluente","nome_ana":"Rio das Cobras","dominio":"Estadual","area_montante_km2":81.9074},"geometry":{"type":"LineString","coordinates":[[-52.5008,-25.2762],[-52.5054,-25.2766],[-52.5098,-25.2754],[-52.5125,-25.2755],[-52.5199,-25.2798],[-52.5259,-25.2792],[-52.5301,-25.2769],[-52.5339,-25.2776],[-52.5409,-25.2817],[-52.5446,-25.2834],[-52.5475,-25.2894],[-52.5515,-25.2924],[-52.5527,-25.2946],[-52.5524,-25.3003],[-52.5563,-25.3043],[-52.5647,-25.3091],[-52.5752,-25.3097],[-52.5801,-25.3118],[-52.584,-25.3161],[-52.5867,-25.3179],[-52.5912,-25.3188],[-52.5936,-25.32],[-52.5977,-25.3253],[-52.5994,-25.3267],[-52.5997,-25.3269],[-52.6024,-25.3277],[-52.6044,-25.3283],[-52.6055,-25.3286]]}},{"type":"Feature","properties":{"nome":"Rio das Cobras","classe":"afluente","nome_ana":"Rio das Cobras","dominio":"Estadual","area_montante_km2":403.872},"geometry":{"type":"LineString","coordinates":[[-52.718,-25.3867],[-52.7179,-25.3878],[-52.7179,-25.3878],[-52.7178,-25.3879],[-52.7163,-25.3978],[-52.7183,-25.4014],[-52.7223,-25.4033],[-52.7272,-25.4034],[-52.7291,-25.4011],[-52.7288,-25.3959],[-52.7312,-25.3943],[-52.7379,-25.4007],[-52.7395,-25.4076],[-52.7388,-25.4165],[-52.7441,-25.4181],[-52.7422,-25.4286],[-52.7416,-25.4312],[-52.7414,-25.4322],[-52.7413,-25.4329]]}},{"type":"Feature","properties":{"nome":"Rio das Cobras","classe":"afluente","nome_ana":"Rio das Cobras","dominio":"Estadual","area_montante_km2":224.196},"geometry":{"type":"LineString","coordinates":[[-52.6055,-25.3286],[-52.6062,-25.3314],[-52.6061,-25.3344],[-52.6111,-25.337],[-52.6166,-25.3381],[-52.6204,-25.3403],[-52.6229,-25.343],[-52.6238,-25.346],[-52.6272,-25.3492],[-52.6322,-25.3503],[-52.6385,-25.3496],[-52.6432,-25.3504],[-52.6474,-25.3554],[-52.6503,-25.3575],[-52.6594,-25.36],[-52.6637,-25.3644],[-52.6655,-25.3687],[-52.6657,-25.3716],[-52.6642,-25.3751],[-52.6649,-25.3774],[-52.6737,-25.3783],[-52.6765,-25.3803],[-52.6795,-25.3844],[-52.6843,-25.3832],[-52.6885,-25.378],[-52.6903,-25.3829],[-52.689,-25.3906],[-52.6908,-25.3934],[-52.6961,-25.3933],[-52.6996,-25.3894],[-52.7024,-25.3872],[-52.7098,-25.3923],[-52.7136,-25.3915],[-52.7147,-25.3866],[-52.7148,-25.386]]}},{"type":"Feature","properties":{"nome":"Rio Iguaçu","classe":"principal","nome_ana":"Rio Iguaçu","dominio":"Federal","area_montante_km2":45930.8},"geometry":{"type":"LineString","coordinates":[[-52.9126,-25.5673],[-52.9128,-25.5673],[-52.9171,-25.5677],[-52.9283,-25.5661],[-52.9379,-25.5613],[-52.9468,-25.5589],[-52.9532,-25.5629],[-52.9652,-25.5701],[-52.9796,-25.5701],[-52.9884,-25.5685],[-52.9916,-25.5597],[-52.9908,-25.5429],[-52.9972,-25.5349],[-53.0044,-25.5373],[-53.018,-25.5413],[-53.0268,-25.5485],[-53.0364,-25.5557],[-53.0412,-25.5653],[-53.0468,-25.5757],[-53.0596,-25.5749],[-53.071,-25.5669],[-53.0718,-25.5664],[-53.0721,-25.5662]]}},{"type":"Feature","properties":{"nome":"Rio Iguaçu","classe":"principal","nome_ana":"Rio Iguaçu","dominio":"Estadual","area_montante_km2":5934.61},"geometry":{"type":"LineString","coordinates":[[-50.312,-25.871],[-50.3122,-25.8709],[-50.316,-25.8696],[-50.3208,-25.8693],[-50.3262,-25.8701],[-50.3311,-25.8735],[-50.3346,-25.8749],[-50.3359,-25.8786],[-50.3431,-25.88],[-50.3476,-25.8861],[-50.3561,-25.8868],[-50.3594,-25.8868],[-50.3622,-25.8889],[-50.3652,-25.889],[-50.3691,-25.8871],[-50.3724,-25.8837],[-50.3756,-25.8778],[-50.3776,-25.8758],[-50.3793,-25.8743],[-50.3795,-25.8741],[-50.3806,-25.8732]]}},{"type":"Feature","properties":{"nome":"Rio Iguaçu","classe":"principal","nome_ana":"Rio Iguaçu","dominio":"Estadual","area_montante_km2":2761.74},"geometry":{"type":"LineString","coordinates":[[-49.5939,-25.6068],[-49.5968,-25.6074],[-49.6035,-25.6046],[-49.6079,-25.6035],[-49.6191,-25.6023],[-49.6235,-25.6006],[-49.6275,-25.5976],[-49.6284,-25.5916],[-49.631,-25.5883],[-49.6376,-25.5886],[-49.6454,-25.5913],[-49.6508,-25.5909],[-49.6515,-25.5908],[-49.6532,-25.5907]]}},{"type":"Feature","properties":{"nome":"Rio Iguaçu","classe":"principal","nome_ana":"Rio Iguaçu","dominio":"Federal","area_montante_km2":66621},"geometry":{"type":"LineString","coordinates":[[-54.2802,-25.5582],[-54.2803,-25.558],[-54.2809,-25.5569],[-54.2833,-25.5525],[-54.2945,-25.5485],[-54.2996,-25.5519],[-54.3006,-25.5526],[-54.3007,-25.5527]]}},{"type":"Feature","properties":{"nome":"Rio Iguaçu","classe":"principal","nome_ana":"Rio Iguaçu","dominio":"Estadual","area_montante_km2":3322.45},"geometry":{"type":"LineString","coordinates":[[-49.7765,-25.577],[-49.7772,-25.5767],[-49.7776,-25.5764],[-49.7864,-25.5721],[-49.79,-25.57],[-49.7902,-25.5699]]}},{"type":"Feature","properties":{"nome":"Rio Iguaçu","classe":"principal","nome_ana":"Rio Iguaçu","dominio":"Federal","area_montante_km2":30752.8},"geometry":{"type":"LineString","coordinates":[[-51.7328,-25.9926],[-51.7336,-25.993],[-51.7337,-25.993],[-51.734,-25.9931],[-51.7425,-25.9971],[-51.7525,-26.0073],[-51.7598,-26.0125],[-51.7649,-26.0104],[-51.7708,-26.0042],[-51.7773,-26.0],[-51.783,-25.9985],[-51.7868,-25.9985],[-51.7918,-25.9999],[-51.7927,-26.0001],[-51.7928,-26.0002]]}},{"type":"Feature","properties":{"nome":"Rio Iguaçu","classe":"principal","nome_ana":"Rio Iguaçu","dominio":"Estadual","area_montante_km2":4226.79},"geometry":{"type":"LineString","coordinates":[[-50.0926,-25.6557],[-50.0925,-25.6565],[-50.0916,-25.6622],[-50.093,-25.6641],[-50.0978,-25.6629],[-50.1023,-25.6585],[-50.1061,-25.659],[-50.1092,-25.6637],[-50.1134,-25.6629],[-50.1168,-25.6574],[-50.1232,-25.6604],[-50.1282,-25.6591],[-50.13,-25.6596],[-50.131,-25.6598]]}},{"type":"Feature","properties":{"nome":"Rio Iguaçu","classe":"principal","nome_ana":"Rio Iguaçu","dominio":"Estadual","area_montante_km2":1174.48},"geometry":{"type":"LineString","coordinates":[[-49.249,-25.5847],[-49.2522,-25.5863],[-49.2622,-25.5957],[-49.2669,-25.5972],[-49.273,-25.6067],[-49.2747,-25.6078],[-49.2752,-25.608],[-49.276,-25.6085]]}},{"type":"Feature","properties":{"nome":"Rio Iguaçu","classe":"principal","nome_ana":"Rio Iguaçu","dominio":"Federal","area_montante_km2":57127.7},"geometry":{"type":"LineString","coordinates":[[-53.4302,-25.5117],[-53.4303,-25.5117],[-53.4398,-25.5117],[-53.4446,-25.5157],[-53.4502,-25.5341],[-53.4598,-25.5389],[-53.4758,-25.5373],[-53.4862,-25.5373],[-53.4926,-25.5405],[-53.495,-25.5493]]}},{"type":"Feature","properties":{"nome":"Rio Iguaçu","classe":"principal","nome_ana":"Rio Iguaçu","dominio":"Federal","area_montante_km2":44356.7},"geometry":{"type":"LineString","coordinates":[[-52.7071,-25.661],[-52.7077,-25.6607],[-52.7163,-25.6574],[-52.7195,-25.651],[-52.7267,-25.6286],[-52.7339,-25.6198],[-52.7409,-25.6172],[-52.7411,-25.6171],[-52.7422,-25.6167]]}},{"type":"Feature","properties":{"nome":"Rio Iguaçu","classe":"principal","nome_ana":"Rio Iguaçu","dominio":"Estadual","area_montante_km2":2978.91},"geometry":{"type":"LineString","coordinates":[[-49.6532,-25.5907],[-49.6534,-25.5908],[-49.6579,-25.5947],[-49.6607,-25.5966],[-49.6642,-25.5964],[-49.668,-25.595],[-49.6737,-25.5898],[-49.6792,-25.5899],[-49.6817,-25.5908],[-49.6877,-25.6005],[-49.6904,-25.6018],[-49.6919,-25.6025],[-49.6921,-25.6026]]}},{"type":"Feature","properties":{"nome":"Rio Iguaçu","classe":"principal","nome_ana":"Rio Iguaçu","dominio":"Estadual","area_montante_km2":4377.38},"geometry":{"type":"LineString","coordinates":[[-50.131,-25.6598],[-50.1303,-25.6616],[-50.1283,-25.666],[-50.1283,-25.6708],[-50.1349,-25.6748],[-50.145,-25.6775],[-50.1482,-25.6795],[-50.1479,-25.6828],[-50.1469,-25.6853],[-50.1432,-25.6897],[-50.1379,-25.6915],[-50.1335,-25.6945],[-50.1282,-25.6995],[-50.1202,-25.7094],[-50.12,-25.7122],[-50.1251,-25.7169],[-50.1304,-25.7187],[-50.1377,-25.7231],[-50.1492,-25.7249],[-50.1501,-25.7263],[-50.1506,-25.727],[-50.151,-25.7276]]}},{"type":"Feature","properties":{"nome":"Rio Iguaçu","classe":"principal","nome_ana":"Rio Iguaçu","dominio":"Federal","area_montante_km2":30370.8},"geometry":{"type":"LineString","coordinates":[[-51.7083,-25.9167],[-51.7086,-25.9168],[-51.7091,-25.9169],[-51.7128,-25.9177]]}},{"type":"Feature","properties":{"nome":"Rio Iguaçu","classe":"principal","nome_ana":"Rio Iguaçu","dominio":"Federal","area_montante_km2":62604.7},"geometry":{"type":"LineString","coordinates":[[-53.7827,-25.582],[-53.7827,-25.5821],[-53.7847,-25.5997],[-53.7895,-25.6093],[-53.8047,-25.6069],[-53.8175,-25.5933],[-53.8135,-25.5773],[-53.8007,-25.5613],[-53.8007,-25.5445],[-53.807,-25.5423],[-53.8089,-25.5416]]}},{"type":"Feature","properties":{"nome":"Rio Iguaçu","classe":"principal","nome_ana":"Rio Iguaçu","dominio":"Federal","area_montante_km2":44101.7},"geometry":{"type":"LineString","coordinates":[[-52.684,-25.6546],[-52.6845,-25.6546],[-52.6882,-25.655],[-52.6946,-25.6574],[-52.7068,-25.6609],[-52.7071,-25.661]]}},{"type":"Feature","properties":{"nome":"Rio Iguaçu","classe":"principal","nome_ana":"Rio Iguaçu","dominio":"Federal","area_montante_km2":39690.4},"geometry":{"type":"LineString","coordinates":[[-52.2345,-25.7462],[-52.235,-25.7461],[-52.2354,-25.7461],[-52.2363,-25.746],[-52.2497,-25.7446],[-52.2609,-25.731],[-52.2665,-25.7182],[-52.2857,-25.7118],[-52.2953,-25.711],[-52.3041,-25.7118],[-52.3073,-25.719],[-52.3153,-25.7262],[-52.3241,-25.7278],[-52.3247,-25.7276],[-52.327,-25.7271],[-52.3273,-25.727],[-52.3273,-25.727]]}},{"type":"Feature","properties":{"nome":"Rio Iguaçu","classe":"principal","nome_ana":"Rio Iguaçu","dominio":"Estadual","area_montante_km2":6137.26},"geometry":{"type":"LineString","coordinates":[[-50.3806,-25.8732],[-50.3811,-25.8735],[-50.3842,-25.8757],[-50.3871,-25.8765],[-50.3888,-25.8822],[-50.3906,-25.8853],[-50.3956,-25.8874],[-50.4052,-25.8884],[-50.4105,-25.8907],[-50.4148,-25.8904],[-50.4208,-25.8875],[-50.4249,-25.8876],[-50.4292,-25.8889],[-50.4303,-25.8921],[-50.4297,-25.9123],[-50.4308,-25.9169],[-50.433,-25.9205],[-50.4391,-25.9232],[-50.438,-25.9263],[-50.4351,-25.9275],[-50.4333,-25.9315]]}},{"type":"Feature","properties":{"nome":"Rio Iguaçu","classe":"principal","nome_ana":"Rio Iguaçu","dominio":"Federal","area_montante_km2":30636.5},"geometry":{"type":"LineString","coordinates":[[-51.7128,-25.9177],[-51.7129,-25.9182],[-51.7129,-25.9187],[-51.7132,-25.9208],[-51.7134,-25.9212],[-51.7178,-25.9329],[-51.7244,-25.9432],[-51.7283,-25.9592],[-51.7352,-25.9677],[-51.7363,-25.9728],[-51.7357,-25.9757],[-51.7307,-25.9815],[-51.7284,-25.985],[-51.7291,-25.9889],[-51.7328,-25.9926]]}},{"type":"Feature","properties":{"nome":"Rio Iguaçu","classe":"principal","nome_ana":"Rio Iguaçu","dominio":"Estadual","area_montante_km2":3916.09},"geometry":{"type":"LineString","coordinates":[[-49.981,-25.6064],[-49.9811,-25.6063],[-49.9826,-25.6033],[-49.9827,-25.6005],[-49.9804,-25.5951],[-49.9809,-25.5922],[-49.9836,-25.5923],[-49.9882,-25.5967],[-49.9889,-25.5974],[-49.9893,-25.5978]]}},{"type":"Feature","properties":{"nome":"Rio Iguaçu","classe":"principal","nome_ana":"Rio Iguaçu","dominio":"Estadual","area_montante_km2":294.138},"geometry":{"type":"LineString","coordinates":[[-49.1265,-25.4475],[-49.1267,-25.4475],[-49.127,-25.4474],[-49.1366,-25.4446],[-49.1417,-25.4444],[-49.153,-25.4463],[-49.1619,-25.4484],[-49.1675,-25.4513],[-49.1677,-25.4514],[-49.1684,-25.4518],[-49.1685,-25.4518]]}},{"type":"Feature","properties":{"nome":"Rio Iguaçu","classe":"principal","nome_ana":"Rio Iguaçu","dominio":"Estadual","area_montante_km2":5074.44},"geometry":{"type":"LineString","coordinates":[[-50.1944,-25.7903],[-50.1945,-25.7903],[-50.1945,-25.7904],[-50.1981,-25.7926],[-50.2009,-25.7912],[-50.1991,-25.7884],[-50.2,-25.7853],[-50.2042,-25.7865],[-50.2104,-25.7899],[-50.2142,-25.7932],[-50.2167,-25.7962],[-50.2179,-25.7976]]}},{"type":"Feature","properties":{"nome":"Rio Iguaçu","classe":"principal","nome_ana":"Rio Iguaçu","dominio":"Federal","area_montante_km2":53569.5},"geometry":{"type":"LineString","coordinates":[[-53.0885,-25.5357],[-53.0885,-25.5357],[-53.094,-25.5373],[-53.102,-25.5469],[-53.1148,-25.5621],[-53.1252,-25.5661],[-53.1348,-25.5637],[-53.1412,-25.5549],[-53.1396,-25.5453],[-53.1396,-25.5237],[-53.1411,-25.5224],[-53.142,-25.5216]]}},{"type":"Feature","properties":{"nome":"Rio Iguaçu","classe":"principal","nome_ana":"Rio Iguaçu","dominio":"Federal","area_montante_km2":43014.3},"geometry":{"type":"LineString","coordinates":[[-52.4545,-25.6771],[-52.4674,-25.6758],[-52.4802,-25.6782],[-52.4946,-25.679],[-52.5042,-25.6718],[-52.517,-25.655],[-52.5364,-25.6475],[-52.5378,-25.647]]}},{"type":"Feature","properties":{"nome":"Rio Iguaçu","classe":"principal","nome_ana":"Rio Iguaçu","dominio":"Federal","area_montante_km2":39526},"geometry":{"type":"LineString","coordinates":[[-52.213,-25.7603],[-52.2136,-25.7598],[-52.2249,-25.7518],[-52.2343,-25.7463],[-52.2345,-25.7462]]}},{"type":"Feature","properties":{"nome":"Rio Iguaçu","classe":"principal","nome_ana":"Rio Iguaçu","dominio":"Federal","area_montante_km2":53419.2},"geometry":{"type":"LineString","coordinates":[[-53.0721,-25.5662],[-53.0772,-25.5565],[-53.0796,-25.5453],[-53.0836,-25.5373],[-53.0885,-25.5357],[-53.0885,-25.5357]]}},{"type":"Feature","properties":{"nome":"Rio Iguaçu","classe":"principal","nome_ana":"Rio Iguaçu","dominio":"Federal","area_montante_km2":58107.4},"geometry":{"type":"LineString","coordinates":[[-53.495,-25.5493],[-53.4954,-25.5495],[-53.4961,-25.5498],[-53.4964,-25.55],[-53.5022,-25.5525],[-53.5118,-25.5533],[-53.5334,-25.5501],[-53.5446,-25.5413],[-53.55,-25.5263]]}},{"type":"Feature","properties":{"nome":"Rio Iguaçu","classe":"principal","nome_ana":"Rio Iguaçu","dominio":"Federal","area_montante_km2":26409.7},"geometry":{"type":"LineString","coordinates":[[-51.2777,-26.148],[-51.2779,-26.1479],[-51.2787,-26.1473],[-51.2804,-26.146],[-51.282,-26.1436],[-51.2847,-26.1357],[-51.2847,-26.1311],[-51.2834,-26.1243],[-51.278,-26.12],[-51.2681,-26.1153],[-51.2604,-26.1085],[-51.2604,-26.1061],[-51.2623,-26.1041],[-51.2633,-26.0994],[-51.2634,-26.099]]}},{"type":"Feature","properties":{"nome":"Rio Iguaçu","classe":"principal","nome_ana":"Rio Iguaçu","dominio":"Federal","area_montante_km2":55100},"geometry":{"type":"LineString","coordinates":[[-53.207,-25.5675],[-53.2109,-25.5741],[-53.2245,-25.5813],[-53.2365,-25.5805],[-53.2429,-25.5805],[-53.2501,-25.5829],[-53.2549,-25.5853],[-53.2585,-25.5911],[-53.2586,-25.5912],[-53.2587,-25.5914],[-53.2589,-25.5917]]}},{"type":"Feature","properties":{"nome":"Rio Iguaçu","classe":"principal","nome_ana":"Rio Iguaçu","dominio":"Federal","area_montante_km2":24700.8},"geometry":{"type":"LineString","coordinates":[[-51.1751,-26.182],[-51.1759,-26.1765],[-51.178,-26.1722],[-51.1827,-26.1672]]}},{"type":"Feature","properties":{"nome":"Rio Iguaçu","classe":"principal","nome_ana":"Rio Iguaçu","dominio":"Federal","area_montante_km2":65303.1},"geometry":{"type":"LineString","coordinates":[[-53.9696,-25.5869],[-53.9704,-25.5869],[-53.9706,-25.5869],[-53.9848,-25.5861],[-53.9992,-25.5845],[-54.008,-25.5709],[-54.0152,-25.5581],[-54.024,-25.5565],[-54.0328,-25.5637],[-54.04,-25.5717],[-54.0496,-25.5781]]}},{"type":"Feature","properties":{"nome":"Rio Iguaçu","classe":"principal","nome_ana":"Rio Iguaçu","dominio":"Federal","area_montante_km2":34059.5},"geometry":{"type":"LineString","coordinates":[[-52.0957,-25.9202],[-52.0948,-25.9176],[-52.1037,-25.9012],[-52.1041,-25.9005],[-52.1044,-25.8999]]}},{"type":"Feature","properties":{"nome":"Rio Iguaçu","classe":"principal","nome_ana":"Rio Iguaçu","dominio":"Federal","area_montante_km2":27316.7},"geometry":{"type":"LineString","coordinates":[[-51.3698,-26.0967],[-51.3704,-26.097],[-51.3712,-26.0974],[-51.3752,-26.0992],[-51.3791,-26.0935],[-51.383,-26.0829],[-51.3908,-26.074],[-51.3931,-26.0716]]}},{"type":"Feature","properties":{"nome":"Rio Iguaçu","classe":"principal","nome_ana":"Rio Iguaçu","dominio":"Federal","area_montante_km2":43351},"geometry":{"type":"LineString","coordinates":[[-52.5466,-25.7046],[-52.5602,-25.6894],[-52.569,-25.6766],[-52.5738,-25.663],[-52.589,-25.6454],[-52.5986,-25.6318],[-52.6065,-25.6153],[-52.6071,-25.614],[-52.6074,-25.6134]]}},{"type":"Feature","properties":{"nome":"Rio Iguaçu","classe":"principal","nome_ana":"Rio Iguaçu","dominio":"Federal","area_montante_km2":43983.1},"geometry":{"type":"LineString","coordinates":[[-52.6074,-25.6134],[-52.6096,-25.6138],[-52.6202,-25.6158],[-52.6266,-25.6198],[-52.6282,-25.6318],[-52.6298,-25.6462],[-52.6338,-25.651],[-52.649,-25.6558],[-52.6658,-25.659],[-52.6718,-25.6571],[-52.6736,-25.6565]]}},{"type":"Feature","properties":{"nome":"Rio Iguaçu","classe":"principal","nome_ana":"Rio Iguaçu","dominio":"Federal","area_montante_km2":39248.6},"geometry":{"type":"LineString","coordinates":[[-52.1165,-25.7734],[-52.1218,-25.7744],[-52.1248,-25.7766],[-52.1312,-25.775],[-52.1384,-25.7702],[-52.1496,-25.763],[-52.1576,-25.755],[-52.1696,-25.7502],[-52.1712,-25.7534],[-52.1816,-25.7646],[-52.188,-25.7702],[-52.1984,-25.7694],[-52.2048,-25.763],[-52.2119,-25.7606],[-52.2129,-25.7603],[-52.213,-25.7603]]}},{"type":"Feature","properties":{"nome":"Rio Iguaçu","classe":"principal","nome_ana":"Rio Iguaçu","dominio":"Federal","area_montante_km2":42501.6},"geometry":{"type":"LineString","coordinates":[[-52.3913,-25.7022],[-52.3921,-25.7022],[-52.4001,-25.7022],[-52.4169,-25.6958],[-52.4273,-25.683],[-52.4401,-25.6782],[-52.452,-25.6773],[-52.4545,-25.6771],[-52.4545,-25.6771]]}},{"type":"Feature","properties":{"nome":"Rio Iguaçu","classe":"principal","nome_ana":"Rio Iguaçu","dominio":"Federal","area_montante_km2":19316.1},"geometry":{"type":"LineString","coordinates":[[-50.6308,-26.0626],[-50.6309,-26.0629],[-50.631,-26.0631],[-50.6318,-26.0661],[-50.6373,-26.0745],[-50.6416,-26.086]]}},{"type":"Feature","properties":{"nome":"Rio Iguaçu","classe":"principal","nome_ana":"Rio Iguaçu","dominio":"Federal","area_montante_km2":16212.9},"geometry":{"type":"LineString","coordinates":[[-50.493,-26.0244],[-50.4933,-26.0243],[-50.4937,-26.0241],[-50.4941,-26.024],[-50.4979,-26.0228],[-50.5005,-26.0241],[-50.502,-26.0283],[-50.5053,-26.0307],[-50.5141,-26.0289],[-50.5245,-26.0295],[-50.5251,-26.0295],[-50.526,-26.0296]]}},{"type":"Feature","properties":{"nome":"Rio Iguaçu","classe":"principal","nome_ana":"Rio Iguaçu","dominio":"Federal","area_montante_km2":27816.9},"geometry":{"type":"LineString","coordinates":[[-51.5149,-26.0693],[-51.5158,-26.0695],[-51.516,-26.0695],[-51.5162,-26.0696],[-51.5223,-26.0708],[-51.5323,-26.0736],[-51.5423,-26.0797],[-51.5476,-26.0814],[-51.5551,-26.0793],[-51.5622,-26.0725],[-51.5622,-26.0644],[-51.5565,-26.0576],[-51.5562,-26.0501],[-51.5651,-26.0476],[-51.5764,-26.0469],[-51.5832,-26.0409],[-51.5821,-26.0337],[-51.5811,-26.0259],[-51.5836,-26.0181],[-51.5918,-26.017],[-51.6064,-26.0177],[-51.6127,-26.0157],[-51.6127,-26.0157],[-51.6131,-26.0156]]}},{"type":"Feature","properties":{"nome":"Rio Iguaçu","classe":"principal","nome_ana":"Rio Iguaçu","dominio":"Federal","area_montante_km2":30930.3},"geometry":{"type":"LineString","coordinates":[[-51.7928,-26.0002],[-51.793,-26.0002],[-51.7977,-26.002],[-51.8108,-26.01],[-51.8166,-26.0127],[-51.825,-26.0144],[-51.8338,-26.0109],[-51.8395,-26.0112],[-51.8472,-26.0141],[-51.8584,-26.0227],[-51.8619,-26.0247],[-51.8657,-26.0257],[-51.8702,-26.0251],[-51.871,-26.025],[-51.8714,-26.0249]]}},{"type":"Feature","properties":{"nome":"Rio Iguaçu","classe":"principal","nome_ana":"Rio Iguaçu","dominio":"Estadual","area_montante_km2":4186.21},"geometry":{"type":"LineString","coordinates":[[-50.0708,-25.6347],[-50.0717,-25.6348],[-50.0721,-25.6348],[-50.0739,-25.635],[-50.0805,-25.637],[-50.0859,-25.6328],[-50.0913,-25.635],[-50.0904,-25.639],[-50.0889,-25.6409],[-50.0871,-25.6453],[-50.0879,-25.6495],[-50.0922,-25.6524],[-50.0926,-25.6554],[-50.0926,-25.6557]]}},{"type":"Feature","properties":{"nome":"Rio Iguaçu","classe":"principal","nome_ana":"Rio Iguaçu","dominio":"Federal","area_montante_km2":33085.9},"geometry":{"type":"LineString","coordinates":[[-51.9917,-26.0176],[-51.9955,-26.0156],[-52.008,-26.0053],[-52.0109,-26.0016],[-52.0115,-25.9977],[-52.0058,-25.9891],[-52.0039,-25.9845],[-52.0037,-25.9807],[-52.0065,-25.978],[-52.0122,-25.9758],[-52.0218,-25.9736],[-52.0256,-25.9711],[-52.0281,-25.9665],[-52.0287,-25.9624],[-52.0254,-25.955],[-52.0254,-25.9504],[-52.027,-25.9469],[-52.0301,-25.9437],[-52.0358,-25.9402],[-52.0453,-25.9375],[-52.053,-25.9366],[-52.0702,-25.9368],[-52.0778,-25.9349],[-52.08,-25.9334],[-52.0809,-25.9328],[-52.0812,-25.9327]]}},{"type":"Feature","properties":{"nome":"Rio Iguaçu","classe":"principal","nome_ana":"Rio Iguaçu","dominio":"Federal","area_montante_km2":45459.1},"geometry":{"type":"LineString","coordinates":[[-52.8589,-25.6007],[-52.8594,-25.602],[-52.8595,-25.6024],[-52.8603,-25.6045],[-52.8651,-25.6133],[-52.8739,-25.611],[-52.8827,-25.6086],[-52.8867,-25.6013],[-52.8947,-25.5861],[-52.8971,-25.5749],[-52.8987,-25.5725],[-52.9007,-25.5714],[-52.9022,-25.5705]]}},{"type":"Feature","properties":{"nome":"Rio Iguaçu","classe":"principal","nome_ana":"Rio Iguaçu","dominio":"Federal","area_montante_km2":66182.9},"geometry":{"type":"LineString","coordinates":[[-54.1424,-25.5131],[-54.1425,-25.5131],[-54.1428,-25.5134],[-54.1544,-25.5213],[-54.1672,-25.5341],[-54.1817,-25.5349],[-54.2033,-25.5317],[-54.2097,-25.5373],[-54.2097,-25.5437],[-54.1929,-25.5541],[-54.1745,-25.5621],[-54.1785,-25.5757],[-54.1811,-25.576],[-54.1824,-25.5762],[-54.183,-25.5762]]}},{"type":"Feature","properties":{"nome":"Rio Iguaçu","classe":"principal","nome_ana":"Rio Iguaçu","dominio":"Federal","area_montante_km2":65524.9},"geometry":{"type":"LineString","coordinates":[[-54.0496,-25.5781],[-54.0503,-25.578],[-54.0503,-25.578],[-54.0508,-25.5779],[-54.0584,-25.5765],[-54.0656,-25.5685],[-54.072,-25.5557],[-54.0824,-25.5549],[-54.0904,-25.5629],[-54.0904,-25.5725],[-54.0896,-25.6005],[-54.0897,-25.6018],[-54.0899,-25.6044],[-54.0899,-25.6047]]}},{"type":"Feature","properties":{"nome":"Rio Iguaçu","classe":"principal","nome_ana":"Rio Iguaçu","dominio":"Federal","area_montante_km2":63961.7},"geometry":{"type":"LineString","coordinates":[[-53.9172,-25.5844],[-53.9177,-25.5839],[-53.9247,-25.5773],[-53.9376,-25.5757],[-53.9504,-25.5813],[-53.9696,-25.5869]]}},{"type":"Feature","properties":{"nome":"Rio Iguaçu","classe":"principal","nome_ana":"Rio Iguaçu","dominio":"Federal","area_montante_km2":44020.9},"geometry":{"type":"LineString","coordinates":[[-52.6736,-25.6565],[-52.6737,-25.6564],[-52.6828,-25.6548],[-52.684,-25.6546]]}},{"type":"Feature","properties":{"nome":"Rio Iguaçu","classe":"principal","nome_ana":"Rio Iguaçu","dominio":"Federal","area_montante_km2":59552.6},"geometry":{"type":"LineString","coordinates":[[-53.55,-25.5263],[-53.5501,-25.526],[-53.5503,-25.5255],[-53.5518,-25.5213],[-53.555,-25.5149],[-53.5638,-25.5157],[-53.5774,-25.5261],[-53.5782,-25.5381],[-53.5742,-25.5517],[-53.5782,-25.5645],[-53.5883,-25.5708]]}},{"type":"Feature","properties":{"nome":"Rio Iguaçu","classe":"principal","nome_ana":"Rio Iguaçu","dominio":"Federal","area_montante_km2":34129.1},"geometry":{"type":"LineString","coordinates":[[-52.1044,-25.8999],[-52.106,-25.8979],[-52.108,-25.8953],[-52.1127,-25.8933],[-52.1137,-25.8928]]}},{"type":"Feature","properties":{"nome":"Rio Iguaçu","classe":"principal","nome_ana":"Rio Iguaçu","dominio":"Federal","area_montante_km2":27012.5},"geometry":{"type":"LineString","coordinates":[[-51.2634,-26.099],[-51.2639,-26.0987],[-51.2641,-26.0987],[-51.2645,-26.0984],[-51.269,-26.0961],[-51.2725,-26.0963],[-51.2769,-26.0991],[-51.284,-26.1014],[-51.2865,-26.1055],[-51.2885,-26.1088],[-51.2931,-26.1103],[-51.2968,-26.1184],[-51.3164,-26.1242],[-51.3346,-26.1183],[-51.3528,-26.0807],[-51.362,-26.0839],[-51.3648,-26.0871],[-51.3694,-26.0959],[-51.3698,-26.0967]]}},{"type":"Feature","properties":{"nome":"Rio Iguaçu","classe":"principal","nome_ana":"Rio Iguaçu","dominio":"Estadual","area_montante_km2":2428.25},"geometry":{"type":"LineString","coordinates":[[-49.5494,-25.6012],[-49.5513,-25.5986],[-49.5512,-25.594],[-49.5544,-25.5917],[-49.5598,-25.5928],[-49.562,-25.5941],[-49.5717,-25.6025],[-49.5778,-25.6036],[-49.5832,-25.6003],[-49.5874,-25.6001],[-49.5879,-25.6],[-49.5889,-25.6]]}},{"type":"Feature","properties":{"nome":"Rio Iguaçu","classe":"principal","nome_ana":"Rio Iguaçu","dominio":"Federal","area_montante_km2":32929.7},"geometry":{"type":"LineString","coordinates":[[-51.9514,-25.9903],[-51.9516,-25.9903],[-51.952,-25.9902],[-51.955,-25.9896],[-51.9627,-25.9908],[-51.9665,-25.9932],[-51.9684,-25.9957],[-51.9697,-26.0003],[-51.9748,-26.0118],[-51.9782,-26.016],[-51.9826,-26.0192],[-51.9865,-26.0195],[-51.9879,-26.0196],[-51.9909,-26.018],[-51.9913,-26.0178],[-51.9917,-26.0176]]}},{"type":"Feature","properties":{"nome":"Rio Iguaçu","classe":"principal","nome_ana":"Rio Iguaçu","dominio":"Federal","area_montante_km2":67502.5},"geometry":{"type":"LineString","coordinates":[[-54.547,-25.5871],[-54.5474,-25.587],[-54.5478,-25.5869],[-54.5578,-25.5837],[-54.5866,-25.5869],[-54.591,-25.5878],[-54.5944,-25.5885],[-54.5946,-25.5885]]}},{"type":"Feature","properties":{"nome":"Rio Iguaçu","classe":"principal","nome_ana":"Rio Iguaçu","dominio":"Federal","area_montante_km2":33394.7},"geometry":{"type":"LineString","coordinates":[[-52.0812,-25.9327],[-52.0862,-25.9295],[-52.0951,-25.9207],[-52.0952,-25.9206],[-52.0957,-25.9202]]}},{"type":"Feature","properties":{"nome":"Rio Iguaçu","classe":"principal","nome_ana":"Rio Iguaçu","dominio":"Estadual","area_montante_km2":4409.12},"geometry":{"type":"LineString","coordinates":[[-50.151,-25.7276],[-50.1511,-25.7288],[-50.1512,-25.7303],[-50.1492,-25.7352],[-50.1494,-25.7378],[-50.149,-25.7395],[-50.1488,-25.7401]]}},{"type":"Feature","properties":{"nome":"Rio Iguaçu","classe":"principal","nome_ana":"Rio Iguaçu","dominio":"Federal","area_montante_km2":65790.5},"geometry":{"type":"LineString","coordinates":[[-54.0968,-25.4989],[-54.0969,-25.4988],[-54.1,-25.4901],[-54.1104,-25.4885],[-54.124,-25.4957],[-54.1392,-25.5109],[-54.1423,-25.513],[-54.1424,-25.5131]]}},{"type":"Feature","properties":{"nome":"Rio Iguaçu","classe":"principal","nome_ana":"Rio Iguaçu","dominio":"Federal","area_montante_km2":24251.2},"geometry":{"type":"LineString","coordinates":[[-51.0573,-26.2392],[-51.0579,-26.2392],[-51.0605,-26.239],[-51.0682,-26.2367],[-51.0731,-26.234],[-51.0785,-26.224],[-51.0787,-26.2238],[-51.0793,-26.2227]]}},{"type":"Feature","properties":{"nome":"Rio Iguaçu","classe":"principal","nome_ana":"Rio Iguaçu","dominio":"Estadual","area_montante_km2":389.514},"geometry":{"type":"LineString","coordinates":[[-49.1685,-25.4518],[-49.1691,-25.4524],[-49.1787,-25.4621],[-49.1801,-25.4634],[-49.1806,-25.464],[-49.1808,-25.4641]]}},{"type":"Feature","properties":{"nome":"Rio Iguaçu","classe":"principal","nome_ana":"Rio Iguaçu","dominio":"Federal","area_montante_km2":27993.3},"geometry":{"type":"LineString","coordinates":[[-51.6131,-26.0156],[-51.6167,-26.0081]]}},{"type":"Feature","properties":{"nome":"Rio Iguaçu","classe":"principal","nome_ana":"Rio Iguaçu","dominio":"Federal","area_montante_km2":63352.7},"geometry":{"type":"LineString","coordinates":[[-53.8089,-25.5416],[-53.8101,-25.5412],[-53.8103,-25.5411],[-53.8119,-25.5405],[-53.8303,-25.5485],[-53.8527,-25.5645],[-53.8751,-25.5837],[-53.8999,-25.5957],[-53.9127,-25.5885],[-53.9169,-25.5846],[-53.9172,-25.5844],[-53.9172,-25.5844]]}},{"type":"Feature","properties":{"nome":"Rio Iguaçu","classe":"principal","nome_ana":"Rio Iguaçu","dominio":"Federal","area_montante_km2":66679.5},"geometry":{"type":"LineString","coordinates":[[-54.3007,-25.5527],[-54.3137,-25.5613],[-54.3217,-25.5629],[-54.3337,-25.5757],[-54.3337,-25.5757],[-54.3337,-25.5757]]}},{"type":"Feature","properties":{"nome":"Rio Iguaçu","classe":"principal","nome_ana":"Rio Iguaçu","dominio":"Estadual","area_montante_km2":1426.2},"geometry":{"type":"LineString","coordinates":[[-49.276,-25.6085],[-49.2764,-25.6087],[-49.277,-25.6089],[-49.2829,-25.6112],[-49.2905,-25.6116],[-49.2969,-25.6142],[-49.3045,-25.613],[-49.3099,-25.6158],[-49.3159,-25.6169],[-49.3176,-25.6208],[-49.3196,-25.6223],[-49.3258,-25.6235],[-49.3276,-25.6286],[-49.3411,-25.6302],[-49.3439,-25.6306],[-49.3487,-25.6325],[-49.3537,-25.6379],[-49.3581,-25.6403],[-49.3642,-25.641],[-49.3642,-25.641],[-49.3645,-25.641],[-49.3652,-25.6411]]}},{"type":"Feature","properties":{"nome":"Rio Iguaçu","classe":"principal","nome_ana":"Rio Iguaçu","dominio":"Federal","area_montante_km2":23522.2},"geometry":{"type":"LineString","coordinates":[[-50.8922,-26.2864],[-50.8928,-26.2864],[-50.8933,-26.2865],[-50.8938,-26.2866],[-50.8962,-26.2869],[-50.899,-26.2861],[-50.9011,-26.2835],[-50.9023,-26.2756],[-50.9023,-26.2641],[-50.9053,-26.257],[-50.9133,-26.2484],[-50.9209,-26.2419],[-50.9214,-26.2415]]}},{"type":"Feature","properties":{"nome":"Rio Iguaçu","classe":"principal","nome_ana":"Rio Iguaçu","dominio":"Federal","area_montante_km2":56492.5},"geometry":{"type":"LineString","coordinates":[[-53.3306,-25.4849],[-53.3349,-25.4837],[-53.3445,-25.4837],[-53.3479,-25.4837],[-53.3485,-25.4837]]}},{"type":"Feature","properties":{"nome":"Rio Iguaçu","classe":"principal","nome_ana":"Rio Iguaçu","dominio":"Federal","area_montante_km2":57000.2},"geometry":{"type":"LineString","coordinates":[[-53.3485,-25.4837],[-53.349,-25.4845],[-53.3525,-25.4909],[-53.3517,-25.4997],[-53.3485,-25.5101],[-53.3429,-25.5197],[-53.3421,-25.5309],[-53.3453,-25.5365],[-53.3549,-25.5405],[-53.3669,-25.5381],[-53.3773,-25.5309],[-53.3869,-25.5189],[-53.3933,-25.5125],[-53.4021,-25.5109],[-53.4125,-25.5117],[-53.4245,-25.5117],[-53.4254,-25.5117],[-53.4302,-25.5117]]}},{"type":"Feature","properties":{"nome":"Rio Iguaçu","classe":"principal","nome_ana":"Rio Iguaçu","dominio":"Federal","area_montante_km2":67223.5},"geometry":{"type":"LineString","coordinates":[[-54.3337,-25.5757],[-54.3457,-25.5925],[-54.3585,-25.5949],[-54.3753,-25.5925],[-54.3849,-25.5917],[-54.3905,-25.5989],[-54.3953,-25.6125],[-54.3991,-25.6211],[-54.4041,-25.6318],[-54.4138,-25.6398],[-54.4234,-25.6502],[-54.429,-25.6606],[-54.4234,-25.6742],[-54.4266,-25.6958],[-54.4394,-25.695],[-54.4442,-25.679],[-54.4522,-25.6598],[-54.4658,-25.6438],[-54.4834,-25.6238],[-54.4871,-25.6206],[-54.4874,-25.6203],[-54.4876,-25.6202],[-54.4877,-25.6201]]}},{"type":"Feature","properties":{"nome":"Rio Iguaçu","classe":"principal","nome_ana":"Rio Iguaçu","dominio":"Federal","area_montante_km2":30295.1},"geometry":{"type":"LineString","coordinates":[[-51.6856,-25.9446],[-51.6856,-25.9445],[-51.6854,-25.9444],[-51.6854,-25.9443],[-51.6848,-25.9436],[-51.6812,-25.9394],[-51.6791,-25.9334],[-51.6787,-25.9296],[-51.6838,-25.9216],[-51.6901,-25.9187],[-51.6997,-25.9163],[-51.7043,-25.9165],[-51.7083,-25.9167]]}},{"type":"Feature","properties":{"nome":"Rio Iguaçu","classe":"principal","nome_ana":"Rio Iguaçu","dominio":"Estadual","area_montante_km2":5760.07},"geometry":{"type":"LineString","coordinates":[[-50.2612,-25.8391],[-50.2623,-25.8399],[-50.2643,-25.8412],[-50.2663,-25.8451],[-50.2664,-25.8453],[-50.2665,-25.8456]]}},{"type":"Feature","properties":{"nome":"Rio Iguaçu","classe":"principal","nome_ana":"Rio Iguaçu","dominio":"Estadual","area_montante_km2":2667.34},"geometry":{"type":"LineString","coordinates":[[-49.5889,-25.6],[-49.589,-25.6002],[-49.5898,-25.602],[-49.5932,-25.606],[-49.5934,-25.6062],[-49.5939,-25.6068]]}},{"type":"Feature","properties":{"nome":"Rio Iguaçu","classe":"principal","nome_ana":"Rio Iguaçu","dominio":"Federal","area_montante_km2":45518.8},"geometry":{"type":"LineString","coordinates":[[-52.9022,-25.5705],[-52.9026,-25.5703],[-52.9029,-25.5701],[-52.9083,-25.5669],[-52.9109,-25.5672],[-52.9126,-25.5673]]}},{"type":"Feature","properties":{"nome":"Rio Iguaçu","classe":"principal","nome_ana":"Rio Iguaçu","dominio":"Estadual","area_montante_km2":5845.3},"geometry":{"type":"LineString","coordinates":[[-50.2665,-25.8456],[-50.2668,-25.8458],[-50.271,-25.8484],[-50.2778,-25.8472],[-50.2877,-25.8415],[-50.292,-25.8415],[-50.2918,-25.8478],[-50.2959,-25.8511],[-50.3007,-25.8517],[-50.3026,-25.8558],[-50.3099,-25.8552],[-50.3134,-25.8565],[-50.3086,-25.8628],[-50.3094,-25.8686],[-50.3113,-25.8703],[-50.3118,-25.8708],[-50.312,-25.871]]}},{"type":"Feature","properties":{"nome":"Rio Iguaçu","classe":"principal","nome_ana":"Rio Iguaçu","dominio":"Estadual","area_montante_km2":3834.92},"geometry":{"type":"LineString","coordinates":[[-49.8898,-25.5726],[-49.8906,-25.5728],[-49.8913,-25.573],[-49.8937,-25.5737],[-49.8975,-25.573],[-49.9001,-25.5677],[-49.9033,-25.5653],[-49.9089,-25.5654],[-49.9122,-25.5625],[-49.9143,-25.5564],[-49.9178,-25.5564],[-49.921,-25.5595],[-49.9214,-25.5632],[-49.9163,-25.57],[-49.9162,-25.5753],[-49.9084,-25.581],[-49.907,-25.5829],[-49.9096,-25.5898],[-49.9154,-25.5962],[-49.9209,-25.5997],[-49.9357,-25.6012],[-49.9382,-25.6022],[-49.9422,-25.6057],[-49.9455,-25.6066],[-49.9506,-25.6058],[-49.9573,-25.6032],[-49.9617,-25.6045],[-49.9619,-25.6046]]}},{"type":"Feature","properties":{"nome":"Rio Iguaçu","classe":"principal","nome_ana":"Rio Iguaçu","dominio":"Federal","area_montante_km2":67342.3},"geometry":{"type":"LineString","coordinates":[[-54.4877,-25.6201],[-54.4938,-25.6149],[-54.5042,-25.6149],[-54.5226,-25.6213],[-54.5386,-25.6181],[-54.5378,-25.6021],[-54.5466,-25.5878],[-54.547,-25.5871]]}},{"type":"Feature","properties":{"nome":"Rio Iguaçu","classe":"principal","nome_ana":"Rio Iguaçu","dominio":"Federal","area_montante_km2":45278.6},"geometry":{"type":"LineString","coordinates":[[-52.7907,-25.5701],[-52.7909,-25.5701],[-52.7912,-25.5701],[-52.7917,-25.5701],[-52.7995,-25.5701],[-52.8043,-25.5781],[-52.8043,-25.5965],[-52.8163,-25.6062],[-52.8259,-25.6029],[-52.8283,-25.5933],[-52.8419,-25.5837],[-52.8547,-25.5893],[-52.8589,-25.6006],[-52.8589,-25.6007]]}},{"type":"Feature","properties":{"nome":"Rio Iguaçu","classe":"principal","nome_ana":"Rio Iguaçu","dominio":"Federal","area_montante_km2":24984.9},"geometry":{"type":"LineString","coordinates":[[-51.2282,-26.1592],[-51.2287,-26.1592],[-51.2288,-26.1592],[-51.2369,-26.1591],[-51.2391,-26.1574],[-51.2397,-26.149],[-51.2407,-26.1469],[-51.2416,-26.1422],[-51.2432,-26.1384],[-51.2448,-26.1359],[-51.2459,-26.1339],[-51.249,-26.1332],[-51.2579,-26.1321],[-51.262,-26.1331],[-51.2643,-26.1351],[-51.2651,-26.1408],[-51.2694,-26.1405],[-51.2745,-26.1422],[-51.2742,-26.1466],[-51.2772,-26.1478],[-51.2777,-26.148]]}},{"type":"Feature","properties":{"nome":"Rio Iguaçu","classe":"principal","nome_ana":"Rio Iguaçu","dominio":"Estadual","area_montante_km2":3084.02},"geometry":{"type":"LineString","coordinates":[[-49.6921,-25.6026],[-49.6956,-25.5991],[-49.6991,-25.5988],[-49.7069,-25.6022],[-49.7102,-25.6031],[-49.714,-25.6031],[-49.7197,-25.6054],[-49.7253,-25.6035],[-49.728,-25.6036],[-49.7314,-25.6059],[-49.7387,-25.6064],[-49.7417,-25.6099],[-49.7413,-25.6148],[-49.7431,-25.6185],[-49.7443,-25.619],[-49.7451,-25.6194],[-49.7456,-25.6196]]}},{"type":"Feature","properties":{"nome":"Rio Iguaçu","classe":"principal","nome_ana":"Rio Iguaçu","dominio":"Estadual","area_montante_km2":1954.33},"geometry":{"type":"LineString","coordinates":[[-49.3758,-25.6424],[-49.3762,-25.6424],[-49.379,-25.6428],[-49.383,-25.6403],[-49.3766,-25.6336],[-49.377,-25.6296],[-49.3797,-25.627],[-49.3875,-25.6252],[-49.392,-25.6234],[-49.391,-25.6179],[-49.3926,-25.616],[-49.3956,-25.6154],[-49.3979,-25.6121],[-49.3979,-25.6076],[-49.3994,-25.6027],[-49.4015,-25.6009],[-49.4047,-25.5996],[-49.4123,-25.6003],[-49.4173,-25.5986],[-49.4176,-25.5949],[-49.4223,-25.5938],[-49.4261,-25.5912],[-49.4312,-25.592],[-49.435,-25.5907],[-49.4382,-25.5883],[-49.4401,-25.5862],[-49.4413,-25.5848],[-49.4413,-25.5847],[-49.4418,-25.5842]]}},{"type":"Feature","properties":{"nome":"Rio Iguaçu","classe":"principal","nome_ana":"Rio Iguaçu","dominio":"Federal","area_montante_km2":19997.8},"geometry":{"type":"LineString","coordinates":[[-50.6416,-26.086],[-50.6417,-26.0862],[-50.6418,-26.0862],[-50.6424,-26.087],[-50.6425,-26.087],[-50.648,-26.0938],[-50.649,-26.0964],[-50.6511,-26.101],[-50.6516,-26.1089],[-50.6459,-26.1232],[-50.6464,-26.1288],[-50.6488,-26.1324],[-50.6528,-26.1354],[-50.6579,-26.1376],[-50.6706,-26.1412],[-50.6744,-26.1437],[-50.676,-26.1448],[-50.6763,-26.145]]}},{"type":"Feature","properties":{"nome":"Rio Iguaçu","classe":"principal","nome_ana":"Rio Iguaçu","dominio":"Federal","area_montante_km2":24549.4},"geometry":{"type":"LineString","coordinates":[[-51.0793,-26.2227],[-51.0822,-26.2209],[-51.0862,-26.2177],[-51.0918,-26.215],[-51.0943,-26.2144],[-51.0981,-26.2145],[-51.1007,-26.217],[-51.1009,-26.2214],[-51.0999,-26.2284],[-51.0977,-26.237],[-51.0975,-26.2422],[-51.0983,-26.2456],[-51.0999,-26.2477],[-51.1028,-26.248],[-51.1056,-26.2478],[-51.1081,-26.2459],[-51.1097,-26.2438],[-51.1109,-26.2397],[-51.1133,-26.237],[-51.1323,-26.2024],[-51.1355,-26.1949],[-51.1465,-26.1887],[-51.1632,-26.186],[-51.1703,-26.1862],[-51.1728,-26.1848],[-51.1733,-26.1842],[-51.1746,-26.1827],[-51.1751,-26.182]]}},{"type":"Feature","properties":{"nome":"Rio Iguaçu","classe":"principal","nome_ana":"Rio Iguaçu","dominio":"Estadual","area_montante_km2":5035.09},"geometry":{"type":"LineString","coordinates":[[-50.1512,-25.7509],[-50.1531,-25.7502],[-50.1557,-25.7491],[-50.1604,-25.7582],[-50.1651,-25.7591],[-50.1678,-25.7598],[-50.1702,-25.7638],[-50.1765,-25.7671],[-50.1795,-25.7661],[-50.1841,-25.7606],[-50.1882,-25.7624],[-50.1878,-25.7671],[-50.1827,-25.7781],[-50.1804,-25.7864],[-50.1912,-25.7885],[-50.1933,-25.7897],[-50.1944,-25.7903]]}},{"type":"Feature","properties":{"nome":"Rio Iguaçu","classe":"principal","nome_ana":"Rio Iguaçu","dominio":"Estadual","area_montante_km2":2353.51},"geometry":{"type":"LineString","coordinates":[[-49.5031,-25.6049],[-49.5035,-25.605],[-49.5042,-25.6053],[-49.5046,-25.6055],[-49.5107,-25.6082],[-49.5129,-25.6071],[-49.5189,-25.6006],[-49.528,-25.5985],[-49.5343,-25.5993],[-49.5432,-25.6017],[-49.5482,-25.6013],[-49.5486,-25.6013],[-49.5489,-25.6013],[-49.5494,-25.6012]]}},{"type":"Feature","properties":{"nome":"Rio Iguaçu","classe":"principal","nome_ana":"Rio Iguaçu","dominio":"Federal","area_montante_km2":43146},"geometry":{"type":"LineString","coordinates":[[-52.5378,-25.647],[-52.5387,-25.647],[-52.5482,-25.6478],[-52.5482,-25.6534],[-52.5434,-25.667],[-52.5306,-25.6806],[-52.5282,-25.6926],[-52.5386,-25.7022],[-52.5436,-25.7037],[-52.5462,-25.7045],[-52.5466,-25.7046]]}},{"type":"Feature","properties":{"nome":"Rio Iguaçu","classe":"principal","nome_ana":"Rio Iguaçu","dominio":"Estadual","area_montante_km2":4939.87},"geometry":{"type":"LineString","coordinates":[[-50.1488,-25.7401],[-50.1485,-25.7415],[-50.1476,-25.7454],[-50.1491,-25.7496],[-50.15,-25.7501],[-50.1512,-25.7509]]}},{"type":"Feature","properties":{"nome":"Rio Iguaçu","classe":"principal","nome_ana":"Rio Iguaçu","dominio":"Estadual","area_montante_km2":1562.19},"geometry":{"type":"LineString","coordinates":[[-49.3652,-25.6411],[-49.3655,-25.6387],[-49.3655,-25.6379],[-49.3656,-25.6375]]}},{"type":"Feature","properties":{"nome":"Rio Iguaçu","classe":"principal","nome_ana":"Rio Iguaçu","dominio":"Federal","area_montante_km2":24777.8},"geometry":{"type":"LineString","coordinates":[[-51.1827,-26.1672],[-51.183,-26.167],[-51.1834,-26.1667],[-51.1836,-26.1665],[-51.1882,-26.1632],[-51.2082,-26.1554],[-51.2145,-26.1552],[-51.2275,-26.159],[-51.2282,-26.1592]]}},{"type":"Feature","properties":{"nome":"Rio Iguaçu","classe":"principal","nome_ana":"Rio Iguaçu","dominio":"Federal","area_montante_km2":20214.3},"geometry":{"type":"LineString","coordinates":[[-50.6763,-26.145],[-50.6764,-26.1453],[-50.6765,-26.1454],[-50.6805,-26.1543],[-50.6839,-26.1644],[-50.6873,-26.1695],[-50.6905,-26.1728],[-50.6995,-26.1846],[-50.7029,-26.1879],[-50.7069,-26.1907],[-50.7163,-26.1953]]}},{"type":"Feature","properties":{"nome":"Rio Iguaçu","classe":"principal","nome_ana":"Rio Iguaçu","dominio":"Estadual","area_montante_km2":873.433},"geometry":{"type":"LineString","coordinates":[[-49.2123,-25.5127],[-49.2124,-25.5128],[-49.2128,-25.514],[-49.2146,-25.5189],[-49.2185,-25.5211],[-49.2204,-25.5243],[-49.2219,-25.53],[-49.2269,-25.5322],[-49.229,-25.5346],[-49.2298,-25.5394],[-49.228,-25.5544],[-49.2281,-25.5598],[-49.2395,-25.5614],[-49.2458,-25.5661],[-49.2475,-25.5696],[-49.2478,-25.5811],[-49.2483,-25.5826],[-49.2487,-25.5837],[-49.2487,-25.5837],[-49.249,-25.5847]]}},{"type":"Feature","properties":{"nome":"Rio Iguaçu","classe":"principal","nome_ana":"Rio Iguaçu","dominio":"Federal","area_montante_km2":66472.6},"geometry":{"type":"LineString","coordinates":[[-54.2353,-25.5917],[-54.2497,-25.5925],[-54.2577,-25.5893],[-54.2611,-25.5853],[-54.2616,-25.5848],[-54.2729,-25.5717],[-54.2792,-25.56],[-54.2802,-25.5582]]}},{"type":"Feature","properties":{"nome":"Rio Iguaçu","classe":"principal","nome_ana":"Rio Iguaçu","dominio":"Estadual","area_montante_km2":6347.46},"geometry":{"type":"LineString","coordinates":[[-50.4333,-25.9315],[-50.4332,-25.9321],[-50.4332,-25.9328],[-50.4331,-25.9336],[-50.433,-25.9345],[-50.4312,-25.9369],[-50.4334,-25.9431],[-50.4289,-25.9464],[-50.4269,-25.9491],[-50.4256,-25.9511],[-50.4268,-25.9586],[-50.4313,-25.9599],[-50.4408,-25.9608],[-50.4449,-25.9629],[-50.4477,-25.9626],[-50.4542,-25.9592],[-50.4587,-25.9593],[-50.4577,-25.9639],[-50.4509,-25.9743],[-50.4487,-25.9812],[-50.4488,-25.9858],[-50.4518,-25.9927],[-50.4527,-25.9973],[-50.4535,-26.0018],[-50.4556,-26.0051],[-50.4611,-26.0092],[-50.4647,-26.0093],[-50.472,-26.007],[-50.4753,-26.0082],[-50.4788,-26.0105],[-50.4777,-26.0134],[-50.4782,-26.0161],[-50.4826,-26.018],[-50.4877,-26.0177],[-50.4896,-26.021],[-50.4929,-26.0243],[-50.493,-26.0244]]}},{"type":"Feature","properties":{"nome":"Rio Iguaçu","classe":"principal","nome_ana":"Rio Iguaçu","dominio":"Estadual","area_montante_km2":4041.61},"geometry":{"type":"LineString","coordinates":[[-49.9893,-25.5978],[-49.99,-25.5984],[-49.9916,-25.5999],[-49.9972,-25.6067],[-50.0004,-25.6066],[-50.0052,-25.6029],[-50.0081,-25.6014],[-50.0106,-25.602],[-50.0146,-25.6041],[-50.0219,-25.6038],[-50.0258,-25.607],[-50.0274,-25.6131],[-50.0264,-25.6177],[-50.0284,-25.6216],[-50.0279,-25.6288],[-50.0294,-25.6314],[-50.0465,-25.6386],[-50.0541,-25.6428],[-50.0584,-25.6468],[-50.0625,-25.6482],[-50.0668,-25.6459],[-50.0705,-25.6354],[-50.0706,-25.6351],[-50.0708,-25.6347]]}},{"type":"Feature","properties":{"nome":"Rio Iguaçu","classe":"principal","nome_ana":"Rio Iguaçu","dominio":"Federal","area_montante_km2":55965.4},"geometry":{"type":"LineString","coordinates":[[-53.3085,-25.5136],[-53.3084,-25.5128],[-53.3083,-25.5122],[-53.3069,-25.5037],[-53.3109,-25.4917],[-53.3229,-25.4869],[-53.3272,-25.4858],[-53.3304,-25.4849],[-53.3306,-25.4849]]}},{"type":"Feature","properties":{"nome":"Rio Iguaçu","classe":"principal","nome_ana":"Rio Iguaçu","dominio":"Estadual","area_montante_km2":47.4505},"geometry":{"type":"LineString","coordinates":[[-49.0017,-25.44],[-49.0073,-25.4399],[-49.0089,-25.4395],[-49.0111,-25.4391],[-49.0202,-25.4352],[-49.0245,-25.4313],[-49.0251,-25.4279],[-49.0275,-25.423],[-49.0327,-25.4192],[-49.0365,-25.4184],[-49.0392,-25.4167],[-49.0419,-25.4061],[-49.0463,-25.4023],[-49.0473,-25.3993],[-49.049,-25.3974],[-49.0549,-25.3988],[-49.0584,-25.399],[-49.0683,-25.3915],[-49.076,-25.3883],[-49.0811,-25.3872],[-49.0874,-25.387],[-49.0912,-25.3877],[-49.095,-25.3884]]}},{"type":"Feature","properties":{"nome":"Rio Iguaçu","classe":"principal","nome_ana":"Rio Iguaçu","dominio":"Estadual","area_montante_km2":3888.69},"geometry":{"type":"LineString","coordinates":[[-49.9619,-25.6046],[-49.962,-25.6046],[-49.9623,-25.6047],[-49.9632,-25.6049],[-49.9661,-25.6058],[-49.969,-25.6062],[-49.9785,-25.6064],[-49.9807,-25.6064],[-49.981,-25.6064]]}},{"type":"Feature","properties":{"nome":"Rio Iguaçu","classe":"principal","nome_ana":"Rio Iguaçu","dominio":"Estadual","area_montante_km2":5466.15},"geometry":{"type":"LineString","coordinates":[[-50.2179,-25.7976],[-50.2189,-25.7987],[-50.2199,-25.7998],[-50.2242,-25.8072],[-50.2264,-25.8094],[-50.2307,-25.8116],[-50.2316,-25.818],[-50.2292,-25.8216],[-50.229,-25.822],[-50.2289,-25.822]]}},{"type":"Feature","properties":{"nome":"Rio Iguaçu","classe":"principal","nome_ana":"Rio Iguaçu","dominio":"Federal","area_montante_km2":55158.9},"geometry":{"type":"LineString","coordinates":[[-53.2589,-25.5917],[-53.2653,-25.5949]]}},{"type":"Feature","properties":{"nome":"Rio Iguaçu","classe":"principal","nome_ana":"Rio Iguaçu","dominio":"Federal","area_montante_km2":18716.3},"geometry":{"type":"LineString","coordinates":[[-50.526,-26.0296],[-50.5298,-26.0306],[-50.5321,-26.0318],[-50.537,-26.0342],[-50.5418,-26.0365],[-50.5447,-26.0372],[-50.549,-26.0374],[-50.5514,-26.0348],[-50.5546,-26.0269],[-50.5549,-26.0247],[-50.5621,-26.0121],[-50.5666,-26.0068],[-50.5735,-26.0053],[-50.5776,-26.0074],[-50.587,-26.017],[-50.5886,-26.0199],[-50.5903,-26.0228],[-50.592,-26.03],[-50.5918,-26.0384],[-50.5898,-26.0424],[-50.5876,-26.0443],[-50.5844,-26.0458],[-50.5765,-26.0461],[-50.5693,-26.0443],[-50.5633,-26.0417],[-50.5596,-26.0414],[-50.5561,-26.042],[-50.5529,-26.0441],[-50.5515,-26.0472],[-50.5516,-26.05],[-50.5516,-26.0529],[-50.5535,-26.0561],[-50.5554,-26.058],[-50.5628,-26.0626],[-50.5663,-26.0641],[-50.5698,-26.0656],[-50.5812,-26.069],[-50.5873,-26.0693],[-50.6028,-26.0671],[-50.6077,-26.0659],[-50.6173,-26.0623],[-50.6249,-26.0621],[-50.6271,-26.0627],[-50.6275,-26.0628],[-50.6303,-26.0627],[-50.6308,-26.0626]]}},{"type":"Feature","properties":{"nome":"Rio Iguaçu","classe":"principal","nome_ana":"Rio Iguaçu","dominio":"Estadual","area_montante_km2":166.343},"geometry":{"type":"LineString","coordinates":[[-49.095,-25.3884],[-49.095,-25.3884],[-49.1043,-25.3927],[-49.1077,-25.3959],[-49.1114,-25.4028],[-49.1145,-25.4248],[-49.1204,-25.4433],[-49.1232,-25.4469],[-49.1263,-25.4475],[-49.1265,-25.4475]]}},{"type":"Feature","properties":{"nome":"Rio Iguaçu","classe":"principal","nome_ana":"Rio Iguaçu","dominio":"Federal","area_montante_km2":20785.9},"geometry":{"type":"LineString","coordinates":[[-50.8,-26.2342],[-50.8035,-26.2355],[-50.815,-26.2411],[-50.8218,-26.2464],[-50.8237,-26.2487],[-50.826,-26.2542],[-50.828,-26.2646],[-50.8338,-26.2696],[-50.8379,-26.2703],[-50.8408,-26.2701],[-50.8449,-26.2686],[-50.8507,-26.2643],[-50.8555,-26.2565],[-50.8582,-26.2506],[-50.8609,-26.2447],[-50.8645,-26.2424],[-50.8684,-26.2439],[-50.8711,-26.2485],[-50.8794,-26.266],[-50.8862,-26.2804],[-50.889,-26.2845],[-50.8922,-26.2864]]}},{"type":"Feature","properties":{"nome":"Rio Iguaçu","classe":"principal","nome_ana":"Rio Iguaçu","dominio":"Federal","area_montante_km2":44444.3},"geometry":{"type":"LineString","coordinates":[[-52.7422,-25.6167],[-52.7555,-25.6166],[-52.7643,-25.615],[-52.7688,-25.6108],[-52.7696,-25.6099],[-52.7704,-25.6092],[-52.7704,-25.6092]]}},{"type":"Feature","properties":{"nome":"Rio Iguaçu","classe":"principal","nome_ana":"Rio Iguaçu","dominio":"Federal","area_montante_km2":54968.6},"geometry":{"type":"LineString","coordinates":[[-53.1946,-25.5229],[-53.1981,-25.5253],[-53.2045,-25.5373],[-53.2061,-25.5461],[-53.2029,-25.5533],[-53.2053,-25.5645],[-53.2066,-25.5669],[-53.207,-25.5675],[-53.207,-25.5675]]}},{"type":"Feature","properties":{"nome":"Rio Iguaçu","classe":"principal","nome_ana":"Rio Iguaçu","dominio":"Federal","area_montante_km2":54913.4},"geometry":{"type":"LineString","coordinates":[[-53.142,-25.5216],[-53.1424,-25.5212],[-53.1427,-25.5209],[-53.1484,-25.5157],[-53.1636,-25.5149],[-53.1844,-25.5157],[-53.193,-25.5217],[-53.1937,-25.5223],[-53.1943,-25.5226],[-53.1946,-25.5229]]}},{"type":"Feature","properties":{"nome":"Rio Iguaçu","classe":"principal","nome_ana":"Rio Iguaçu","dominio":"Federal","area_montante_km2":30220.3},"geometry":{"type":"LineString","coordinates":[[-51.6167,-26.0081],[-51.6167,-26.0081],[-51.6249,-26.0063],[-51.6415,-25.9981],[-51.6512,-25.9997],[-51.6578,-26.006],[-51.6613,-26.0089],[-51.6662,-26.0104],[-51.6751,-26.0037],[-51.6802,-25.9903],[-51.6824,-25.9892],[-51.6859,-25.9879],[-51.6977,-25.9814],[-51.7043,-25.9757],[-51.7075,-25.9707],[-51.7079,-25.9649],[-51.7066,-25.9625],[-51.6991,-25.9556],[-51.689,-25.9486],[-51.6856,-25.9446]]}},{"type":"Feature","properties":{"nome":"Rio Iguaçu","classe":"principal","nome_ana":"Rio Iguaçu","dominio":"Federal","area_montante_km2":34380},"geometry":{"type":"LineString","coordinates":[[-52.1137,-25.8928],[-52.1144,-25.8928],[-52.1159,-25.8929],[-52.1201,-25.8929],[-52.128,-25.8914],[-52.1328,-25.8898],[-52.1359,-25.8879],[-52.1397,-25.8781],[-52.1427,-25.8736],[-52.1534,-25.8653],[-52.1584,-25.8592],[-52.1601,-25.8552],[-52.16,-25.846],[-52.159,-25.8385],[-52.1617,-25.8313],[-52.1621,-25.8278],[-52.1597,-25.8234],[-52.153,-25.8195],[-52.1492,-25.8135],[-52.1479,-25.8075],[-52.1393,-25.8022],[-52.1343,-25.7963],[-52.1284,-25.7922],[-52.1214,-25.7934],[-52.1153,-25.7933]]}},{"type":"Feature","properties":{"nome":"Rio Iguaçu","classe":"principal","nome_ana":"Rio Iguaçu","dominio":"Federal","area_montante_km2":23858.8},"geometry":{"type":"LineString","coordinates":[[-50.9214,-26.2415],[-50.922,-26.2412],[-50.922,-26.2412],[-50.9301,-26.2367],[-50.936,-26.2341],[-50.9411,-26.2333],[-50.9444,-26.2363],[-50.9444,-26.2396],[-50.9428,-26.2448],[-50.9356,-26.2586],[-50.9329,-26.2672],[-50.9328,-26.2724],[-50.9334,-26.275],[-50.934,-26.2776],[-50.9369,-26.2805],[-50.9395,-26.2812],[-50.9423,-26.2811],[-50.9465,-26.2792],[-50.9486,-26.275],[-50.9513,-26.2686],[-50.9554,-26.2667],[-50.9612,-26.2655],[-50.9636,-26.2642],[-50.9669,-26.2605],[-50.9703,-26.2532],[-50.9746,-26.2481],[-50.9931,-26.2356],[-51.0024,-26.2307],[-51.01,-26.2291],[-51.0203,-26.2294],[-51.0254,-26.2301],[-51.033,-26.2324],[-51.0484,-26.2388],[-51.0535,-26.2395],[-51.0551,-26.2394],[-51.0573,-26.2392]]}},{"type":"Feature","properties":{"nome":"Rio Iguaçu","classe":"principal","nome_ana":"Rio Iguaçu","dominio":"Estadual","area_montante_km2":1829.7},"geometry":{"type":"LineString","coordinates":[[-49.3656,-25.6375],[-49.367,-25.6387],[-49.367,-25.6387],[-49.3671,-25.6388],[-49.3685,-25.6399],[-49.3724,-25.6419],[-49.3735,-25.642],[-49.3758,-25.6424]]}},{"type":"Feature","properties":{"nome":"Rio Iguaçu","classe":"principal","nome_ana":"Rio Iguaçu","dominio":"Estadual","area_montante_km2":721.363},"geometry":{"type":"LineString","coordinates":[[-49.1948,-25.488],[-49.1973,-25.4961],[-49.1986,-25.4984],[-49.2026,-25.5031],[-49.2071,-25.5099],[-49.2093,-25.5115],[-49.212,-25.5126],[-49.2123,-25.5127]]}},{"type":"Feature","properties":{"nome":"Rio Iguaçu","classe":"principal","nome_ana":"Rio Iguaçu","dominio":"Estadual","area_montante_km2":565.19},"geometry":{"type":"LineString","coordinates":[[-49.1877,-25.4727],[-49.1878,-25.473],[-49.1879,-25.473],[-49.1882,-25.4735],[-49.19,-25.4761],[-49.194,-25.4854],[-49.1945,-25.4869],[-49.1947,-25.4876],[-49.1948,-25.488]]}},{"type":"Feature","properties":{"nome":"Rio Iguaçu","classe":"principal","nome_ana":"Rio Iguaçu","dominio":"Federal","area_montante_km2":61575.9},"geometry":{"type":"LineString","coordinates":[[-53.5883,-25.5708],[-53.5887,-25.5709],[-53.5888,-25.5709],[-53.589,-25.5709],[-53.595,-25.5717],[-53.6054,-25.5677],[-53.6198,-25.5501],[-53.6326,-25.5341],[-53.6478,-25.5213],[-53.6598,-25.5153],[-53.66,-25.5152],[-53.6615,-25.5145]]}},{"type":"Feature","properties":{"nome":"Rio Iguaçu","classe":"principal","nome_ana":"Rio Iguaçu","dominio":"Estadual","area_montante_km2":3404.57},"geometry":{"type":"LineString","coordinates":[[-49.7902,-25.5699],[-49.7902,-25.5699],[-49.7944,-25.5674],[-49.802,-25.5663],[-49.8079,-25.5642],[-49.8103,-25.5615],[-49.8114,-25.5547],[-49.8114,-25.5546],[-49.8124,-25.5537],[-49.8132,-25.5529]]}},{"type":"Feature","properties":{"nome":"Rio Iguaçu","classe":"principal","nome_ana":"Rio Iguaçu","dominio":"Estadual","area_montante_km2":2228.78},"geometry":{"type":"LineString","coordinates":[[-49.4418,-25.5842],[-49.442,-25.5841],[-49.4456,-25.5828],[-49.4489,-25.5835],[-49.4562,-25.589],[-49.4661,-25.5908],[-49.4702,-25.5936],[-49.4788,-25.5932],[-49.4832,-25.5969],[-49.4876,-25.5974],[-49.4915,-25.5968],[-49.494,-25.5974],[-49.4976,-25.5996],[-49.5027,-25.6045],[-49.5031,-25.6049]]}},{"type":"Feature","properties":{"nome":"Rio Iguaçu","classe":"principal","nome_ana":"Rio Iguaçu","dominio":"Federal","area_montante_km2":39832.9},"geometry":{"type":"LineString","coordinates":[[-52.3273,-25.727],[-52.3297,-25.7222],[-52.3265,-25.7134],[-52.3209,-25.7038],[-52.3113,-25.6942],[-52.3089,-25.6854],[-52.3161,-25.6814],[-52.3265,-25.6814],[-52.3361,-25.687],[-52.3401,-25.6958],[-52.3529,-25.7046],[-52.3625,-25.707],[-52.3721,-25.7046],[-52.3881,-25.7022],[-52.3903,-25.7022],[-52.3913,-25.7022]]}},{"type":"Feature","properties":{"nome":"Rio Iguaçu","classe":"principal","nome_ana":"Rio Iguaçu","dominio":"Federal","area_montante_km2":62362.7},"geometry":{"type":"LineString","coordinates":[[-53.6782,-25.5125],[-53.6786,-25.5126],[-53.6831,-25.5133],[-53.6959,-25.5221],[-53.7031,-25.5357],[-53.7143,-25.5421],[-53.7183,-25.5509],[-53.7175,-25.5613],[-53.7063,-25.5781],[-53.7079,-25.5869],[-53.7183,-25.5933],[-53.7287,-25.5909],[-53.7407,-25.5789],[-53.7551,-25.5613],[-53.7703,-25.5557],[-53.7791,-25.5645],[-53.7826,-25.5812],[-53.7827,-25.582]]}},{"type":"Feature","properties":{"nome":"Rio Iguaçu","classe":"principal","nome_ana":"Rio Iguaçu","dominio":"Federal","area_montante_km2":61695.3},"geometry":{"type":"LineString","coordinates":[[-53.6615,-25.5145],[-53.6617,-25.5144],[-53.662,-25.5142],[-53.6686,-25.5109],[-53.6769,-25.5123],[-53.6782,-25.5125]]}},{"type":"Feature","properties":{"nome":"Rio Iguaçu","classe":"principal","nome_ana":"Rio Iguaçu","dominio":"Federal","area_montante_km2":20552.2},"geometry":{"type":"LineString","coordinates":[[-50.7163,-26.1953],[-50.7164,-26.1953],[-50.717,-26.1956],[-50.7178,-26.1961],[-50.7257,-26.1999],[-50.7288,-26.2037],[-50.7295,-26.2097],[-50.7283,-26.2122],[-50.717,-26.2244],[-50.7149,-26.2296],[-50.7142,-26.2382],[-50.7161,-26.2433],[-50.7195,-26.2467],[-50.7224,-26.2483],[-50.7291,-26.2505],[-50.7364,-26.2509],[-50.7397,-26.25],[-50.7446,-26.2471],[-50.7453,-26.2439],[-50.7458,-26.2316],[-50.7499,-26.2237],[-50.7556,-26.2214],[-50.7609,-26.2216],[-50.7663,-26.2219],[-50.7748,-26.2255],[-50.7874,-26.2299],[-50.7987,-26.2338],[-50.8,-26.2342],[-50.8,-26.2342]]}},{"type":"Feature","properties":{"nome":"Rio Iguaçu","classe":"principal","nome_ana":"Rio Iguaçu","dominio":"Federal","area_montante_km2":66427.1},"geometry":{"type":"LineString","coordinates":[[-54.183,-25.5762],[-54.1842,-25.5764],[-54.1929,-25.5773],[-54.2025,-25.5749],[-54.2137,-25.5653],[-54.2329,-25.5613],[-54.2329,-25.5797],[-54.2353,-25.5917],[-54.2353,-25.5917],[-54.2353,-25.5917]]}},{"type":"Feature","properties":{"nome":"Rio Iguaçu","classe":"principal","nome_ana":"Rio Iguaçu","dominio":"Federal","area_montante_km2":32789.2},"geometry":{"type":"LineString","coordinates":[[-51.8714,-26.0249],[-51.877,-26.0212],[-51.8832,-26.0139],[-51.8863,-26.0119],[-51.9054,-26.0064],[-51.9113,-26.0022],[-51.9216,-25.9976],[-51.9369,-25.9967],[-51.9458,-25.9915],[-51.9508,-25.9904],[-51.9514,-25.9903]]}},{"type":"Feature","properties":{"nome":"Rio Iguaçu","classe":"principal","nome_ana":"Rio Iguaçu","dominio":"Estadual","area_montante_km2":3666.26},"geometry":{"type":"LineString","coordinates":[[-49.8132,-25.5529],[-49.8136,-25.5533],[-49.8153,-25.5546],[-49.818,-25.5542],[-49.8225,-25.5495],[-49.8262,-25.5477],[-49.83,-25.5483],[-49.8365,-25.5511],[-49.8425,-25.5479],[-49.8457,-25.5485],[-49.8469,-25.5507],[-49.8501,-25.5535],[-49.8545,-25.5515],[-49.8597,-25.5455],[-49.8676,-25.5458],[-49.873,-25.5449],[-49.8783,-25.5461],[-49.88,-25.5495],[-49.885,-25.549],[-49.89,-25.5487],[-49.8902,-25.5534],[-49.8845,-25.5565],[-49.8805,-25.5595],[-49.8787,-25.562],[-49.88,-25.5671],[-49.8817,-25.5691],[-49.8866,-25.5718],[-49.8878,-25.5721],[-49.8898,-25.5726]]}},{"type":"Feature","properties":{"nome":"Rio Iguaçu","classe":"principal","nome_ana":"Rio Iguaçu","dominio":"Federal","area_montante_km2":44504},"geometry":{"type":"LineString","coordinates":[[-52.7704,-25.6092],[-52.7771,-25.603],[-52.7843,-25.5829],[-52.7905,-25.5705],[-52.7906,-25.5703],[-52.7907,-25.5701]]}},{"type":"Feature","properties":{"nome":"Rio Iguaçu","classe":"principal","nome_ana":"Rio Iguaçu","dominio":"Estadual","area_montante_km2":3266.47},"geometry":{"type":"LineString","coordinates":[[-49.7456,-25.6196],[-49.7459,-25.619],[-49.7459,-25.6189],[-49.7485,-25.6141],[-49.7492,-25.6099],[-49.7475,-25.5846],[-49.7501,-25.5813],[-49.7549,-25.5802],[-49.765,-25.5813],[-49.7689,-25.5807],[-49.7764,-25.577],[-49.7765,-25.577]]}},{"type":"Feature","properties":{"nome":"Rio Iguaçu","classe":"principal","nome_ana":"Rio Iguaçu","dominio":"Federal","area_montante_km2":55905.4},"geometry":{"type":"LineString","coordinates":[[-53.2653,-25.5949],[-53.2654,-25.5949],[-53.2663,-25.5947],[-53.2709,-25.5933],[-53.2749,-25.5869],[-53.2749,-25.5797],[-53.2757,-25.5597],[-53.2845,-25.5509],[-53.2949,-25.5509],[-53.3093,-25.5541],[-53.3237,-25.5549],[-53.3285,-25.5541],[-53.3309,-25.5445],[-53.3269,-25.5357],[-53.3197,-25.5277],[-53.3093,-25.5181],[-53.3085,-25.5136]]}},{"type":"Feature","properties":{"nome":"Rio Iguaçu","classe":"principal","nome_ana":"Rio Iguaçu","dominio":"Estadual","area_montante_km2":5644.16},"geometry":{"type":"LineString","coordinates":[[-50.2289,-25.822],[-50.229,-25.8222],[-50.2295,-25.8266],[-50.2438,-25.8353],[-50.2509,-25.8373],[-50.2579,-25.8392],[-50.2597,-25.8392],[-50.2611,-25.8391],[-50.2612,-25.8391]]}},{"type":"Feature","properties":{"nome":"Rio Iguaçu","classe":"principal","nome_ana":"Rio Iguaçu","dominio":"Estadual","area_montante_km2":437.753},"geometry":{"type":"LineString","coordinates":[[-49.1808,-25.4641],[-49.1838,-25.4671],[-49.1877,-25.4727]]}},{"type":"Feature","properties":{"nome":"Rio Iguaçu","classe":"principal","nome_ana":"Rio Iguaçu","dominio":"Federal","area_montante_km2":34431.8},"geometry":{"type":"LineString","coordinates":[[-52.1153,-25.7933],[-52.1147,-25.7933],[-52.1137,-25.7932],[-52.1115,-25.7929],[-52.108,-25.7908],[-52.1062,-25.7868],[-52.1068,-25.7827],[-52.1088,-25.7791],[-52.1109,-25.7771],[-52.115,-25.7745],[-52.1162,-25.7737],[-52.1162,-25.7737],[-52.1165,-25.7734]]}},{"type":"Feature","properties":{"nome":"Rio Iguaçu","classe":"principal","nome_ana":"Rio Iguaçu","dominio":"Federal","area_montante_km2":27537.9},"geometry":{"type":"LineString","coordinates":[[-51.3931,-26.0716],[-51.3937,-26.0713],[-51.3941,-26.0711],[-51.3945,-26.0709],[-51.3976,-26.0693],[-51.4047,-26.0615],[-51.4108,-26.0622],[-51.4111,-26.0686],[-51.4111,-26.0779],[-51.4125,-26.085],[-51.4198,-26.0871],[-51.4252,-26.0804],[-51.4376,-26.075],[-51.4465,-26.0765],[-51.4547,-26.0797],[-51.4665,-26.0814],[-51.4828,-26.0821],[-51.4921,-26.0761],[-51.4985,-26.0658],[-51.5056,-26.0647],[-51.5149,-26.0693]]}},{"type":"Feature","properties":{"nome":"Rio Andrada (São Salvador na base da ANA)","classe":"afluente","nome_ana":"Rio São Salvador","dominio":"Estadual","area_montante_km2":1213.45},"geometry":{"type":"LineString","coordinates":[[-53.4572,-25.3188],[-53.4575,-25.3191],[-53.4579,-25.3197],[-53.4584,-25.3204],[-53.4628,-25.3268],[-53.4661,-25.3266],[-53.4752,-25.3201],[-53.4787,-25.3203],[-53.486,-25.3242],[-53.4842,-25.3277],[-53.4773,-25.3304],[-53.4745,-25.3332],[-53.4679,-25.3378],[-53.4667,-25.3398],[-53.4699,-25.3416],[-53.4763,-25.3414],[-53.4736,-25.3519],[-53.4731,-25.3563],[-53.4779,-25.3572],[-53.4854,-25.355],[-53.4905,-25.3548],[-53.4943,-25.3553],[-53.498,-25.3568],[-53.4983,-25.3591],[-53.4908,-25.3682],[-53.4909,-25.3728],[-53.4928,-25.3745],[-53.4992,-25.3763],[-53.5003,-25.3795],[-53.4958,-25.3805],[-53.4824,-25.3773],[-53.4789,-25.3773],[-53.4764,-25.3784],[-53.4752,-25.3824],[-53.4775,-25.3858],[-53.482,-25.3898],[-53.4831,-25.3947],[-53.4849,-25.3984],[-53.4885,-25.3985],[-53.4911,-25.3974],[-53.5004,-25.3891],[-53.5041,-25.3901],[-53.5066,-25.3983],[-53.5062,-25.4029],[-53.4968,-25.4087],[-53.4955,-25.4138],[-53.4973,-25.4162],[-53.5012,-25.4188],[-53.5037,-25.4214],[-53.5043,-25.422],[-53.5046,-25.4222]]}},{"type":"Feature","properties":{"nome":"Rio Andrada (São Salvador na base da ANA)","classe":"afluente","nome_ana":"Rio São Salvador","dominio":"Estadual","area_montante_km2":482.03},"geometry":{"type":"LineString","coordinates":[[-53.429,-25.1914],[-53.4291,-25.1918],[-53.4292,-25.192],[-53.4297,-25.1937],[-53.4193,-25.2071],[-53.4219,-25.2104],[-53.4264,-25.2115],[-53.4295,-25.21],[-53.4361,-25.2053],[-53.4411,-25.2034],[-53.4443,-25.2035],[-53.4401,-25.2109],[-53.4292,-25.226],[-53.4302,-25.23],[-53.4394,-25.2297],[-53.4432,-25.2308],[-53.4452,-25.2338],[-53.4452,-25.2362],[-53.4368,-25.2392],[-53.4318,-25.2431],[-53.422,-25.2448],[-53.4203,-25.2471]]}},{"type":"Feature","properties":{"nome":"Rio Andrada (São Salvador na base da ANA)","classe":"afluente","nome_ana":"Rio São Salvador","dominio":"Estadual","area_montante_km2":1400.91},"geometry":{"type":"LineString","coordinates":[[-53.5046,-25.4222],[-53.5038,-25.4226],[-53.5031,-25.4229],[-53.4992,-25.4248],[-53.4964,-25.4263],[-53.4971,-25.4296],[-53.5018,-25.4352],[-53.5049,-25.4371],[-53.5122,-25.4365],[-53.5138,-25.4384],[-53.5127,-25.4463],[-53.5091,-25.4554],[-53.508,-25.4621],[-53.5096,-25.4645],[-53.5149,-25.4661],[-53.5195,-25.4656],[-53.5289,-25.4633],[-53.5321,-25.4634],[-53.5334,-25.4661],[-53.5305,-25.4687],[-53.5291,-25.4722],[-53.5308,-25.4788],[-53.5274,-25.4809],[-53.5229,-25.4807],[-53.5119,-25.4778],[-53.5089,-25.4783],[-53.5076,-25.4818],[-53.5113,-25.4856],[-53.5234,-25.4886],[-53.5275,-25.4911],[-53.528,-25.494],[-53.5265,-25.4976],[-53.5259,-25.5009],[-53.5291,-25.5025],[-53.5319,-25.5005],[-53.5392,-25.4903],[-53.5414,-25.4923],[-53.5373,-25.5006],[-53.5376,-25.5046],[-53.5391,-25.5109],[-53.5366,-25.513],[-53.53,-25.5151],[-53.5275,-25.5166],[-53.526,-25.5185],[-53.526,-25.5218],[-53.5289,-25.5235],[-53.5369,-25.5232],[-53.5488,-25.526],[-53.5493,-25.5261],[-53.55,-25.5263]]}},{"type":"Feature","properties":{"nome":"Rio Andrada (São Salvador na base da ANA)","classe":"afluente","nome_ana":"Rio São Salvador","dominio":"Estadual","area_montante_km2":144.387},"geometry":{"type":"LineString","coordinates":[[-53.3792,-25.0655],[-53.3793,-25.0661],[-53.3813,-25.0718],[-53.387,-25.0801],[-53.3897,-25.0887],[-53.3923,-25.0905],[-53.3986,-25.0911],[-53.4009,-25.0938],[-53.4009,-25.0963],[-53.3978,-25.1064],[-53.3966,-25.1084],[-53.3896,-25.115],[-53.3897,-25.1173],[-53.3926,-25.1206],[-53.3993,-25.1248],[-53.3997,-25.125],[-53.4001,-25.1252]]}},{"type":"Feature","properties":{"nome":"Rio Andrada (São Salvador na base da ANA)","classe":"afluente","nome_ana":"Rio São Salvador","dominio":"Estadual","area_montante_km2":52.6564},"geometry":{"type":"LineString","coordinates":[[-53.3134,-25.008],[-53.3151,-25.0101],[-53.3193,-25.0118],[-53.3229,-25.0119],[-53.3263,-25.0134],[-53.3323,-25.0221],[-53.3402,-25.0224],[-53.3442,-25.0243],[-53.3471,-25.0275],[-53.3486,-25.0328],[-53.3503,-25.0358],[-53.3564,-25.0424],[-53.3577,-25.0457],[-53.3591,-25.0529],[-53.364,-25.0579],[-53.3667,-25.0618],[-53.3695,-25.0644],[-53.3734,-25.0658],[-53.3758,-25.0657],[-53.3776,-25.0656],[-53.3792,-25.0655]]}},{"type":"Feature","properties":{"nome":"Rio Andrada (São Salvador na base da ANA)","classe":"afluente","nome_ana":"Rio São Salvador","dominio":"Estadual","area_montante_km2":38.6115},"geometry":{"type":"LineString","coordinates":[[-53.3991,-24.9817],[-53.3987,-24.9818],[-53.3939,-24.9828],[-53.3911,-24.9843],[-53.3868,-24.9885],[-53.3855,-24.9908],[-53.3856,-24.9937],[-53.3869,-24.9976],[-53.3868,-25.0003],[-53.3836,-25.0058],[-53.382,-25.0116],[-53.3822,-25.0145],[-53.3847,-25.0205],[-53.3855,-25.026],[-53.3834,-25.0318],[-53.3788,-25.0392],[-53.3768,-25.0587],[-53.3785,-25.0638],[-53.3792,-25.0655]]}},{"type":"Feature","properties":{"nome":"Rio Andrada (São Salvador na base da ANA)","classe":"afluente","nome_ana":"Rio São Salvador","dominio":"Estadual","area_montante_km2":384.083},"geometry":{"type":"LineString","coordinates":[[-53.4001,-25.1252],[-53.4002,-25.1254],[-53.4013,-25.1308],[-53.4036,-25.135],[-53.4076,-25.1386],[-53.4079,-25.1415],[-53.4014,-25.1444],[-53.4039,-25.1488],[-53.4134,-25.1511],[-53.4156,-25.1559],[-53.4136,-25.1575],[-53.4051,-25.1598],[-53.4013,-25.1615],[-53.3995,-25.1666],[-53.4015,-25.17],[-53.4044,-25.1724],[-53.408,-25.1728],[-53.4098,-25.1756],[-53.4093,-25.1808],[-53.4173,-25.1784],[-53.4182,-25.1824],[-53.4151,-25.1873],[-53.418,-25.1906],[-53.4246,-25.1904],[-53.4259,-25.1903],[-53.4273,-25.1908],[-53.4284,-25.1912],[-53.429,-25.1914]]}},{"type":"Feature","properties":{"nome":"Rio Andrada (São Salvador na base da ANA)","classe":"afluente","nome_ana":"Rio São Salvador","dominio":"Estadual","area_montante_km2":797.426},"geometry":{"type":"LineString","coordinates":[[-53.4203,-25.2471],[-53.4204,-25.2479],[-53.4206,-25.2493],[-53.4209,-25.2516],[-53.4231,-25.2537],[-53.4277,-25.2597],[-53.4314,-25.2614],[-53.436,-25.2578],[-53.443,-25.2573],[-53.4443,-25.2604],[-53.4425,-25.2622],[-53.4313,-25.2677],[-53.4281,-25.2706],[-53.4293,-25.2761],[-53.4345,-25.2843],[-53.4344,-25.2884],[-53.433,-25.2942],[-53.433,-25.2945],[-53.4328,-25.295]]}},{"type":"Feature","properties":{"nome":"Rio Andrada (São Salvador na base da ANA)","classe":"afluente","nome_ana":"Rio São Salvador","dominio":"Estadual","area_montante_km2":853.152},"geometry":{"type":"LineString","coordinates":[[-53.4328,-25.295],[-53.4333,-25.2952],[-53.4367,-25.2961],[-53.4381,-25.298],[-53.438,-25.3021],[-53.4426,-25.3075],[-53.4422,-25.3121],[-53.445,-25.3147],[-53.4503,-25.3145],[-53.4542,-25.3157],[-53.4572,-25.3188]]}}]}