{"type":"FeatureCollection","features":[{"type":"Feature","id":51,"geometry":{"type":"Polygon","coordinates":[[[-49.65,-24.7123],[-49.6541,-24.7043],[-49.6841,-24.6998],[-49.6959,-24.6894],[-49.6781,-24.6777],[-49.68,-24.667],[-49.6588,-24.6594],[-49.6564,-24.6453],[-49.638,-24.6515],[-49.6339,-24.6411],[-49.6206,-24.6468],[-49.6076,-24.6357],[-49.5958,-24.6373],[-49.5891,-24.6176],[-49.5714,-24.6243],[-49.5695,-24.609],[-49.5496,-24.5869],[-49.5527,-24.5784],[-49.5387,-24.5682],[-49.5237,-24.5755],[-49.5257,-24.6064],[-49.511,-24.6136],[-49.4939,-24.5882],[-49.4968,-24.5627],[-49.4873,-24.5339],[-49.4702,-24.5454],[-49.4539,-24.5371],[-49.45,-24.5234],[-49.4396,-24.5247],[-49.4296,-24.5151],[-49.428,-24.5003],[-49.4016,-24.4987],[-49.3903,-24.4864],[-49.3584,-24.4768],[-49.3473,-24.4591],[-49.3229,-24.4475],[-49.3126,-24.4259],[-49.3018,-24.4304],[-49.2807,-24.4166],[-49.2542,-24.4233],[-49.2502,-24.4174],[-49.2545,-24.4059],[-49.2484,-24.3993],[-49.23,-24.3967],[-49.1885,-24.3765],[-49.1521,-24.3507],[-49.1519,-24.3389],[-49.1371,-24.3336],[-49.1313,-24.3407],[-49.1205,-24.3317],[-49.1041,-24.3355],[-49.0413,-24.3847],[-49.0345,-24.3761],[-49.0243,-24.3761],[-49.0056,-24.3487],[-48.9823,-24.3413],[-48.9782,-24.3483],[-48.9691,-24.3488],[-48.951,-24.379],[-48.9336,-24.3936],[-48.9165,-24.3868],[-48.911,-24.4056],[-48.9041,-24.4096],[-48.9057,-24.4213],[-48.8859,-24.4351],[-48.8737,-24.4316],[-48.8585,-24.4593],[-48.8638,-24.466],[-48.8504,-24.4798],[-48.8335,-24.4743],[-48.818,-24.4867],[-48.8117,-24.5098],[-48.8057,-24.5118],[-48.7919,-24.5018],[-48.7605,-24.5129],[-48.7596,-24.501],[-48.7461,-24.4878],[-48.735,-24.4882],[-48.732,-24.477],[-48.7213,-24.4843],[-48.7219,-24.4756],[-48.7038,-24.4626],[-48.709,-24.4554],[-48.6938,-24.4524],[-48.6968,-24.4124],[-48.6753,-24.4159],[-48.6586,-24.4048],[-48.6281,-24.3502],[-48.6003,-24.3327],[-48.5906,-24.3143],[-48.5582,-24.2865],[-48.5375,-24.3192],[-48.5237,-24.3192],[-48.5182,-24.3135],[-48.5231,-24.2972],[-48.5052,-24.304],[-48.5034,-24.2886],[-48.4956,-24.2827],[-48.4737,-24.2907],[-48.465,-24.2864],[-48.4553,-24.2954],[-48.453,-24.2831],[-48.4648,-24.2715],[-48.4577,-24.2531],[-48.4508,-24.2632],[-48.4106,-24.2675],[-48.4068,-24.2843],[-48.3938,-24.292],[-48.3872,-24.3057],[-48.3601,-24.2809],[-48.3377,-24.2923],[-48.3288,-24.2907],[-48.3265,-24.3138],[-48.316,-24.3118],[-48.3191,-24.3062],[-48.3121,-24.3016],[-48.3007,-24.3053],[-48.2925,-24.2935],[-48.2785,-24.2992],[-48.2751,-24.293],[-48.2842,-24.2841],[-48.2633,-24.2725],[-48.2528,-24.2574],[-48.2063,-24.2641],[-48.1577,-24.2325],[-48.1457,-24.2316],[-48.1415,-24.2272],[-48.1454,-24.2121],[-48.1388,-24.2102],[-48.1413,-24.1944],[-48.1187,-24.1938],[-48.1153,-24.1998],[-48.0981,-24.202],[-48.0905,-24.1909],[-48.0827,-24.1933],[-48.0611,-24.1822],[-48.0588,-24.1579],[-48.0507,-24.1555],[-48.057,-24.1465],[-48.0368,-24.1349],[-48.0245,-24.1347],[-48.023,-24.1255],[-48.0081,-24.1348],[-47.9849,-24.1128],[-47.9554,-24.1145],[-47.9381,-24.1064],[-47.937,-24.098],[-47.9151,-24.0999],[-47.9016,-24.0931],[-47.8935,-24.0765],[-47.9081,-24.0682],[-47.8961,-24.0611],[-47.8838,-24.0634],[-47.889,-24.0481],[-47.8718,-24.049],[-47.87,-24.0316],[-47.8525,-24.0205],[-47.8638,-24.0031],[-47.847,-23.9546],[-47.8348,-23.9564],[-47.8241,-23.9499],[-47.8118,-23.9598],[-47.8107,-23.9529],[-47.8023,-23.9526],[-47.8049,-23.9631],[-47.7964,-23.9781],[-47.7799,-23.9889],[-47.7674,-23.9835],[-47.7499,-23.9917],[-47.7382,-23.9853],[-47.7287,-24.0033],[-47.7198,-24.0001],[-47.7162,-24.0062],[-47.7107,-24.0035],[-47.7115,-23.992],[-47.682,-23.9918],[-47.6583,-23.9719],[-47.6536,-23.959],[-47.646,-23.9628],[-47.6283,-23.9499],[-47.6174,-23.9546],[-47.6115,-23.9477],[-47.5987,-23.9534],[-47.5798,-23.9506],[-47.5704,-23.9476],[-47.5712,-23.9419],[-47.5495,-23.9427],[-47.538,-23.9313],[-47.5278,-23.9379],[-47.5237,-23.9324],[-47.5182,-23.935],[-47.5139,-23.921],[-47.5036,-23.9246],[-47.4998,-23.914],[-47.492,-23.9165],[-47.4893,-23.9105],[-47.4748,-23.9097],[-47.4498,-23.9216],[-47.4192,-23.8922],[-47.4056,-23.8875],[-47.4074,-23.8728],[-47.3902,-23.8692],[-47.3902,-23.8629],[-47.3829,-23.8611],[-47.3891,-23.8551],[-47.3754,-23.8426],[-47.4046,-23.8299],[-47.4065,-23.8424],[-47.4207,-23.8351],[-47.4346,-23.8496],[-47.4451,-23.8413],[-47.5017,-23.8447],[-47.5311,-23.8048],[-47.5346,-23.7867],[-47.5887,-23.7952],[-47.6059,-23.7811],[-47.6327,-23.7867],[-47.64,-23.7789],[-47.6526,-23.779],[-47.6525,-23.7733],[-47.6837,-23.7501],[-47.7013,-23.7713],[-47.7141,-23.7704],[-47.7401,-23.7562],[-47.7374,-23.7465],[-47.7466,-23.743],[-47.7476,-23.7362],[-47.7726,-23.7409],[-47.7844,-23.7233],[-47.8074,-23.7113],[-47.8167,-23.7132],[-47.8286,-23.7036],[-47.8254,-23.696],[-47.8361,-23.6829],[-47.8365,-23.6715],[-47.8502,-23.6711],[-47.8596,-23.657],[-47.8612,-23.6482],[-47.8427,-23.641],[-47.8435,-23.6338],[-47.8592,-23.6326],[-47.8787,-23.621],[-47.8841,-23.6056],[-47.8973,-23.6037],[-47.9183,-23.6178],[-47.9281,-23.6134],[-47.9319,-23.5993],[-47.9681,-23.597],[-47.9757,-23.5907],[-47.9624,-23.5735],[-47.969,-23.5655],[-47.9522,-23.5427],[-47.9671,-23.5229],[-47.9604,-23.5021],[-47.9768,-23.5006],[-47.9876,-23.4917],[-47.9988,-23.4952],[-48.0047,-23.4859],[-48.0171,-23.4865],[-48.029,-23.4964],[-48.0669,-23.468],[-48.0912,-23.4662],[-48.1055,-23.4566],[-48.1069,-23.4163],[-48.0827,-23.3812],[-48.082,-23.3696],[-48.091,-23.3557],[-48.0806,-23.3449],[-48.081,-23.3274],[-48.0911,-23.3192],[-48.1035,-23.3215],[-48.109,-23.3024],[-48.1396,-23.2835],[-48.1401,-23.2663],[-48.1629,-23.2613],[-48.1715,-23.2735],[-48.1839,-23.2747],[-48.1954,-23.2971],[-48.2025,-23.2932],[-48.2115,-23.3023],[-48.2382,-23.2901],[-48.2412,-23.2804],[-48.2629,-23.2754],[-48.271,-23.2879],[-48.2768,-23.284],[-48.2798,-23.2763],[-48.274,-23.2649],[-48.2915,-23.2596],[-48.2838,-23.2406],[-48.3106,-23.2076],[-48.3096,-23.2014],[-48.2913,-23.1986],[-48.2863,-23.1835],[-48.299,-23.1766],[-48.3198,-23.1845],[-48.3069,-23.1487],[-48.3303,-23.1374],[-48.3351,-23.124],[-48.3621,-23.1012],[-48.3587,-23.081],[-48.3715,-23.0615],[-48.3557,-23.0551],[-48.3649,-23.04],[-48.3635,-23.0193],[-48.3483,-22.9905],[-48.3662,-22.9944],[-48.3721,-22.9679],[-48.4024,-22.9459],[-48.4117,-22.9558],[-48.426,-22.9485],[-48.4354,-22.9557],[-48.4382,-22.9475],[-48.4458,-22.9491],[-48.444,-22.9357],[-48.4551,-22.9276],[-48.466,-22.9326],[-48.4777,-22.9038],[-48.4924,-22.9015],[-48.4907,-22.8946],[-48.5048,-22.8838],[-48.5281,-22.8815],[-48.5296,-22.8729],[-48.5424,-22.8663],[-48.5385,-22.8449],[-48.5462,-22.839],[-48.5451,-22.831],[-48.5531,-22.8296],[-48.5737,-22.8018],[-48.5729,-22.7868],[-48.5913,-22.7801],[-48.594,-22.7721],[-48.6026,-22.7757],[-48.6216,-22.77],[-48.6633,-22.7385],[-48.6879,-22.7443],[-48.6916,-22.7366],[-48.7272,-22.7316],[-48.7499,-22.7537],[-48.7726,-22.738],[-48.8104,-22.7382],[-48.8171,-22.729],[-48.8442,-22.7204],[-48.8622,-22.7264],[-48.8715,-22.7116],[-48.8812,-22.7149],[-48.8776,-22.704],[-48.9147,-22.6945],[-48.9128,-22.6816],[-48.9346,-22.6688],[-48.937,-22.6543],[-48.9307,-22.6449],[-48.9446,-22.6371],[-48.9446,-22.6207],[-48.9574,-22.6276],[-48.9624,-22.612],[-48.9757,-22.6096],[-48.9799,-22.6175],[-48.9935,-22.6207],[-49.0046,-22.5905],[-48.991,-22.5657],[-49.0024,-22.5621],[-49.0024,-22.5454],[-49.014,-22.5407],[-49.0074,-22.529],[-49.0327,-22.5165],[-49.0294,-22.5054],[-49.0415,-22.5012],[-49.0446,-22.4932],[-49.0629,-22.5003],[-49.0777,-22.4976],[-49.0812,-22.4879],[-49.0934,-22.4907],[-49.1221,-22.4485],[-49.1385,-22.4474],[-49.1366,-22.4398],[-49.1465,-22.4326],[-49.1607,-22.4321],[-49.1599,-22.4433],[-49.1839,-22.4493],[-49.1987,-22.4442],[-49.204,-22.4306],[-49.2196,-22.4237],[-49.2188,-22.4177],[-49.2343,-22.4051],[-49.2485,-22.4002],[-49.2603,-22.4138],[-49.2804,-22.4036],[-49.281,-22.3976],[-49.291,-22.3999],[-49.3174,-22.3882],[-49.3218,-22.3677],[-49.3446,-22.3556],[-49.3521,-22.3368],[-49.3751,-22.3401],[-49.3873,-22.3321],[-49.3899,-22.3224],[-49.4368,-22.3304],[-49.4424,-22.326],[-49.4586,-22.3349],[-49.4926,-22.3176],[-49.4969,-22.2977],[-49.4899,-22.2863],[-49.5187,-22.2592],[-49.5508,-22.2558],[-49.5659,-22.243],[-49.5821,-22.2443],[-49.5896,-22.2346],[-49.6088,-22.2401],[-49.6446,-22.236],[-49.654,-22.2462],[-49.6488,-22.2596],[-49.6579,-22.2762],[-49.6493,-22.2851],[-49.6505,-22.2936],[-49.6363,-22.3009],[-49.6316,-22.3129],[-49.6324,-22.3299],[-49.6555,-22.3712],[-49.6903,-22.3716],[-49.7205,-22.3827],[-49.7298,-22.3743],[-49.7357,-22.3815],[-49.7562,-22.3801],[-49.8171,-22.4126],[-49.8225,-22.4049],[-49.856,-22.411],[-49.8697,-22.4018],[-49.8849,-22.4085],[-49.9089,-22.3948],[-49.9194,-22.3989],[-49.9385,-22.389],[-49.9488,-22.3913],[-49.9524,-22.4065],[-49.9639,-22.4001],[-49.9671,-22.409],[-50.0019,-22.4063],[-50.0078,-22.4128],[-50.0201,-22.401],[-50.0426,-22.4024],[-50.0789,-22.4215],[-50.0884,-22.4113],[-50.1133,-22.4145],[-50.1479,-22.4365],[-50.1715,-22.434],[-50.182,-22.4243],[-50.2051,-22.4329],[-50.2129,-22.4134],[-50.2312,-22.4076],[-50.236,-22.3785],[-50.2706,-22.3678],[-50.2915,-22.3715],[-50.3168,-22.3555],[-50.3508,-22.3579],[-50.366,-22.3343],[-50.3761,-22.3442],[-50.3831,-22.338],[-50.3978,-22.343],[-50.4227,-22.3207],[-50.4495,-22.3333],[-50.4522,-22.3154],[-50.4585,-22.3126],[-50.4811,-22.3107],[-50.4904,-22.3189],[-50.4975,-22.3113],[-50.5299,-22.3108],[-50.5351,-22.3015],[-50.5596,-22.2954],[-50.5707,-22.3046],[-50.5896,-22.303],[-50.5997,-22.2953],[-50.6181,-22.2962],[-50.6435,-22.281],[-50.6601,-22.2804],[-50.6709,-22.2574],[-50.6912,-22.2584],[-50.7038,-22.2424],[-50.7151,-22.2493],[-50.7296,-22.2348],[-50.78,-22.2458],[-50.7924,-22.2276],[-50.8129,-22.2415],[-50.8278,-22.2409],[-50.8383,-22.2375],[-50.849,-22.2149],[-50.8586,-22.2244],[-50.8914,-22.2201],[-50.9418,-22.2397],[-50.9612,-22.2372],[-50.9665,-22.2301],[-50.9768,-22.2371],[-51.0101,-22.2382],[-51.0399,-22.2201],[-51.04,-22.2058],[-51.063,-22.1821],[-51.0794,-22.1831],[-51.0901,-22.174],[-51.0979,-22.177],[-51.1098,-22.1666],[-51.1249,-22.1757],[-51.1337,-22.1729],[-51.1533,-22.1373],[-51.176,-22.1487],[-51.1719,-22.1662],[-51.1804,-22.1771],[-51.1994,-22.1654],[-51.2202,-22.1775],[-51.2471,-22.1696],[-51.2701,-22.1882],[-51.2854,-22.1818],[-51.3002,-22.2209],[-51.3199,-22.222],[-51.3229,-22.2168],[-51.3304,-22.221],[-51.3526,-22.2042],[-51.3541,-22.1917],[-51.3724,-22.1782],[-51.3715,-22.1713],[-51.3877,-22.1528],[-51.3883,-22.1306],[-51.3757,-22.1129],[-51.3893,-22.1079],[-51.3913,-22.096],[-51.4144,-22.0881],[-51.4255,-22.0704],[-51.4526,-22.0699],[-51.4718,-22.0782],[-51.4943,-22.0674],[-51.5105,-22.0576],[-51.5227,-22.0371],[-51.5421,-22.0313],[-51.5646,-21.9947],[-51.5815,-22.0029],[-51.5977,-21.9937],[-51.6151,-21.9629],[-51.6415,-21.9694],[-51.6677,-21.9662],[-51.6724,-21.9629],[-51.6693,-21.9554],[-51.6968,-21.9438],[-51.6999,-21.9324],[-51.7193,-21.9125],[-51.7349,-21.8715],[-51.7694,-21.8754],[-51.786,-21.8673],[-51.7963,-21.8813],[-51.836,-21.8703],[-51.8441,-21.8766],[-51.8663,-21.8773],[-51.8818,-21.8905],[-51.8793,-21.8707],[-51.9097,-21.8537],[-51.9192,-21.856],[-51.934,-21.8332],[-51.9403,-21.8378],[-51.9579,-21.8265],[-51.9602,-21.8177],[-51.988,-21.7993],[-51.9901,-21.7899],[-52.0035,-21.7856],[-52.0071,-21.7734],[-52.0269,-21.7719],[-52.0483,-21.751],[-52.0671,-21.7577],[-52.1157,-21.7321],[-52.1997,-21.76],[-52.2309,-21.7937],[-52.2641,-21.8175],[-52.3708,-21.9693],[-52.3733,-22.0171],[-52.4078,-22.0877],[-52.4403,-22.1307],[-52.5044,-22.1758],[-52.5134,-22.1995],[-52.5947,-22.2255],[-52.6767,-22.271],[-52.7136,-22.282],[-52.8459,-22.3581],[-52.9497,-22.4667],[-52.9991,-22.4967],[-53.0093,-22.5178],[-53.0474,-22.5312],[-53.0843,-22.5577],[-53.113,-22.6105],[-53.1248,-22.6531],[-53.1439,-22.6705],[-53.162,-22.7007],[-53.1559,-22.713],[-53.161,-22.721],[-53.1415,-22.7409],[-53.1566,-22.7656],[-53.1517,-22.7976],[-53.1609,-22.8137],[-53.1578,-22.8408],[-53.148,-22.8512],[-53.1456,-22.8673],[-53.1333,-22.8744],[-53.1299,-22.8892],[-53.1277,-22.9024],[-53.1376,-22.9201],[-53.1348,-22.9338],[-53.1018,-22.9312],[-53.0866,-22.9199],[-53.0653,-22.9305],[-53.054,-22.9449],[-53.0349,-22.9463],[-53.0264,-22.9299],[-52.9407,-22.9426],[-52.9303,-22.9296],[-52.916,-22.927],[-52.8885,-22.9068],[-52.864,-22.921],[-52.8625,-22.9311],[-52.8536,-22.937],[-52.8335,-22.9235],[-52.8157,-22.9269],[-52.8118,-22.921],[-52.7861,-22.9318],[-52.7775,-22.9218],[-52.7652,-22.9197],[-52.7393,-22.9476],[-52.7189,-22.9505],[-52.7143,-22.9601],[-52.6941,-22.9567],[-52.6904,-22.9495],[-52.6654,-22.9515],[-52.6432,-22.9564],[-52.641,-22.9699],[-52.6323,-22.9648],[-52.598,-22.9765],[-52.5638,-22.9584],[-52.5515,-22.9404],[-52.5404,-22.936],[-52.5278,-22.9468],[-52.528,-22.9743],[-52.5174,-22.9865],[-52.524,-23.0076],[-52.4893,-23.0082],[-52.471,-23.0485],[-52.4421,-23.049],[-52.4347,-23.0567],[-52.411,-23.0624],[-52.4001,-23.0726],[-52.4038,-23.0813],[-52.3899,-23.0985],[-52.3521,-23.0985],[-52.3543,-23.106],[-52.3361,-23.1322],[-52.3154,-23.1246],[-52.2847,-23.1252],[-52.2743,-23.1351],[-52.2725,-23.1514],[-52.2607,-23.1607],[-52.2513,-23.1602],[-52.2479,-23.1732],[-52.2087,-23.1793],[-52.2012,-23.1929],[-52.2032,-23.204],[-52.1687,-23.2324],[-52.1668,-23.275],[-52.1513,-23.2732],[-52.1439,-23.2881],[-52.1129,-23.2961],[-52.1137,-23.3135],[-52.1082,-23.3157],[-52.114,-23.3339],[-52.0969,-23.3434],[-52.0858,-23.3672],[-52.0731,-23.361],[-52.0582,-23.3815],[-52.041,-23.374],[-52.0274,-23.3888],[-52.0096,-23.3882],[-51.9599,-23.4288],[-51.9557,-23.4224],[-51.94,-23.422],[-51.934,-23.4129],[-51.903,-23.4268],[-51.8904,-23.4246],[-51.8779,-23.4328],[-51.8664,-23.4669],[-51.8319,-23.4714],[-51.8257,-23.4813],[-51.8085,-23.4784],[-51.7899,-23.4843],[-51.7532,-23.5251],[-51.7407,-23.5246],[-51.7328,-23.5158],[-51.7162,-23.5171],[-51.7143,-23.5096],[-51.6976,-23.5118],[-51.6699,-23.5313],[-51.6749,-23.5465],[-51.6693,-23.5601],[-51.6557,-23.5632],[-51.6437,-23.6032],[-51.6212,-23.6043],[-51.6117,-23.5959],[-51.6007,-23.6054],[-51.5749,-23.601],[-51.5708,-23.5832],[-51.5582,-23.5879],[-51.5534,-23.5744],[-51.5368,-23.559],[-51.5146,-23.5718],[-51.5024,-23.5635],[-51.4829,-23.564],[-51.4721,-23.5512],[-51.4524,-23.5507],[-51.4329,-23.5607],[-51.4318,-23.5694],[-51.418,-23.579],[-51.4067,-23.6103],[-51.3804,-23.6269],[-51.374,-23.6601],[-51.3576,-23.6679],[-51.3599,-23.6757],[-51.3524,-23.6886],[-51.2886,-23.7334],[-51.274,-23.734],[-51.2619,-23.7524],[-51.2622,-23.7681],[-51.2499,-23.7757],[-51.2554,-23.7926],[-51.2531,-23.8155],[-51.2678,-23.8248],[-51.2622,-23.8424],[-51.2532,-23.8465],[-51.2629,-23.8685],[-51.2507,-23.8731],[-51.2443,-23.8843],[-51.2268,-23.8874],[-51.2249,-23.904],[-51.1843,-23.9104],[-51.1641,-23.9445],[-51.171,-23.9571],[-51.151,-23.9613],[-51.1531,-23.9691],[-51.1446,-23.9793],[-51.1232,-23.9914],[-51.111,-23.9874],[-51.0988,-23.9915],[-51.0918,-24.0151],[-51.0988,-24.0293],[-51.0637,-24.0525],[-51.0599,-24.0824],[-51.0425,-24.0951],[-51.0418,-24.111],[-51.0359,-24.116],[-51.0396,-24.1254],[-51.0515,-24.131],[-51.0318,-24.1532],[-51.0521,-24.1599],[-50.9874,-24.2288],[-50.9907,-24.236],[-50.9779,-24.2335],[-50.9449,-24.2551],[-50.9388,-24.2515],[-50.874,-24.3035],[-50.8825,-24.3196],[-50.8815,-24.3335],[-50.8934,-24.3319],[-50.8963,-24.3382],[-50.8885,-24.3476],[-50.8934,-24.3674],[-50.904,-24.3721],[-50.9143,-24.3893],[-50.9057,-24.4015],[-50.916,-24.4055],[-50.8995,-24.4239],[-50.8885,-24.4226],[-50.8867,-24.4288],[-50.8902,-24.4377],[-50.8853,-24.4522],[-50.8993,-24.4824],[-50.8728,-24.5212],[-50.877,-24.5436],[-50.8865,-24.5507],[-50.8735,-24.5657],[-50.8779,-24.5746],[-50.8899,-24.579],[-50.896,-24.6015],[-50.9062,-24.6013],[-50.8993,-24.6171],[-50.9103,-24.6319],[-50.9113,-24.6521],[-50.9198,-24.6583],[-50.9137,-24.6957],[-50.9264,-24.7012],[-50.9275,-24.7105],[-50.909,-24.7285],[-50.9071,-24.7499],[-50.8912,-24.7574],[-50.8899,-24.7684],[-50.8635,-24.7746],[-50.869,-24.7863],[-50.8618,-24.8026],[-50.8768,-24.8197],[-50.8745,-24.8357],[-50.8666,-24.8343],[-50.8644,-24.844],[-50.8488,-24.8501],[-50.8363,-24.9024],[-50.823,-24.9058],[-50.8175,-24.9145],[-50.8205,-24.9671],[-50.8351,-24.9835],[-50.8266,-24.9866],[-50.818,-25.0109],[-50.832,-25.0383],[-50.8442,-25.0418],[-50.8435,-25.0501],[-50.8266,-25.0574],[-50.8246,-25.0701],[-50.8124,-25.0705],[-50.8085,-25.1043],[-50.7963,-25.1109],[-50.7967,-25.122],[-50.7841,-25.1349],[-50.7554,-25.1507],[-50.7438,-25.1762],[-50.7456,-25.188],[-50.7643,-25.1988],[-50.7753,-25.1952],[-50.7766,-25.2097],[-50.7904,-25.2107],[-50.7904,-25.2182],[-50.8118,-25.2282],[-50.8201,-25.2466],[-50.814,-25.2585],[-50.8193,-25.2621],[-50.8018,-25.2743],[-50.7989,-25.2841],[-50.8032,-25.3085],[-50.8167,-25.3276],[-50.8079,-25.3365],[-50.8126,-25.3524],[-50.786,-25.3785],[-50.7906,-25.3894],[-50.7824,-25.4001],[-50.7846,-25.4149],[-50.7669,-25.4195],[-50.7549,-25.4337],[-50.7399,-25.4318],[-50.7353,-25.4435],[-50.7392,-25.4498],[-50.7041,-25.4724],[-50.6907,-25.5061],[-50.6765,-25.5136],[-50.6599,-25.4949],[-50.6519,-25.5131],[-50.6251,-25.5102],[-50.6046,-25.5282],[-50.6043,-25.5453],[-50.621,-25.5595],[-50.6207,-25.5871],[-50.6052,-25.5858],[-50.6018,-25.5782],[-50.5914,-25.58],[-50.5851,-25.5729],[-50.5611,-25.5809],[-50.5472,-25.5786],[-50.5179,-25.6065],[-50.5274,-25.6285],[-50.5128,-25.6281],[-50.5027,-25.6477],[-50.4934,-25.6465],[-50.4843,-25.659],[-50.4504,-25.6485],[-50.4468,-25.636],[-50.4327,-25.6438],[-50.4254,-25.6324],[-50.4301,-25.6216],[-50.4242,-25.5908],[-50.4136,-25.5857],[-50.4127,-25.5785],[-50.4029,-25.5804],[-50.394,-25.5518],[-50.3696,-25.5501],[-50.3554,-25.5365],[-50.3207,-25.5454],[-50.3001,-25.541],[-50.281,-25.5529],[-50.2665,-25.5462],[-50.2471,-25.581],[-50.1607,-25.5815],[-50.1318,-25.576],[-50.1275,-25.5596],[-50.1077,-25.5545],[-50.1096,-25.5443],[-50.099,-25.5301],[-50.097,-25.5144],[-50.0848,-25.5175],[-50.0701,-25.5085],[-50.0307,-25.5207],[-50.0138,-25.5018],[-49.9929,-25.4982],[-49.9809,-25.4852],[-49.9367,-25.5128],[-49.9137,-25.4982],[-49.8964,-25.502],[-49.8753,-25.4947],[-49.8665,-25.5025],[-49.8474,-25.4751],[-49.8007,-25.4693],[-49.7977,-25.4356],[-49.7824,-25.4292],[-49.766,-25.4065],[-49.7742,-25.3905],[-49.7593,-25.3579],[-49.8073,-25.3421],[-49.8069,-25.3227],[-49.8271,-25.3135],[-49.8337,-25.2979],[-49.8407,-25.2973],[-49.8353,-25.2791],[-49.8199,-25.2765],[-49.8164,-25.2695],[-49.8271,-25.2682],[-49.828,-25.2608],[-49.8435,-25.2539],[-49.8428,-25.24],[-49.855,-25.2364],[-49.828,-25.2262],[-49.8469,-25.2165],[-49.8848,-25.2134],[-49.9069,-25.1965],[-49.9075,-25.1844],[-49.9242,-25.1731],[-49.929,-25.1462],[-49.94,-25.1371],[-49.9531,-25.1492],[-49.9702,-25.1313],[-49.9712,-25.1142],[-49.9861,-25.1041],[-49.9788,-25.0982],[-49.9836,-25.0813],[-49.9765,-25.0793],[-49.9847,-25.0681],[-49.9648,-25.0632],[-49.9614,-25.0457],[-49.9665,-25.0298],[-49.9576,-25.0264],[-49.9471,-25.0318],[-49.9299,-25.0197],[-49.9308,-24.9969],[-49.925,-24.9899],[-49.8926,-24.9986],[-49.8906,-24.9887],[-49.8996,-24.9869],[-49.9004,-24.9541],[-49.8945,-24.9512],[-49.8799,-24.962],[-49.8664,-24.9634],[-49.8521,-24.9449],[-49.8345,-24.9483],[-49.8271,-24.9584],[-49.8003,-24.9383],[-49.7991,-24.9204],[-49.7763,-24.9044],[-49.8013,-24.8881],[-49.8051,-24.881],[-49.7958,-24.874],[-49.8142,-24.8672],[-49.8173,-24.8503],[-49.804,-24.834],[-49.7522,-24.8428],[-49.7452,-24.8305],[-49.7498,-24.8234],[-49.7441,-24.8194],[-49.752,-24.8085],[-49.7387,-24.8061],[-49.7397,-24.797],[-49.7303,-24.7918],[-49.7124,-24.7946],[-49.7172,-24.7816],[-49.7134,-24.7689],[-49.6982,-24.7753],[-49.6742,-24.7733],[-49.6711,-24.758],[-49.6824,-24.7421],[-49.6787,-24.7303],[-49.6678,-24.7254],[-49.6569,-24.7294],[-49.65,-24.7123]]]},"properties":{"OBJECTID":51,"DME_CD":"11149","DME_NM":"Paranapanema","DME_DMA_CD":"111","DME_AR_KM2":107375.474074011}}]}